{
  "type": "FeatureCollection",
  "features": [
    {
      "type": "Feature",
      "properties": {
        "id": "nsw",
        "name": "New South Wales",
        "bbox": {
          "lonMin": 140.9,
          "latMin": -37.5,
          "lonMax": 153.6,
          "latMax": -28.2
        }
      },
      "geometry": {
        "type": "Polygon",
        "coordinates": [
          [
            [
              141,
              -34
            ],
            [
              141,
              -29
            ],
            [
              148.9,
              -29
            ],
            [
              149.7,
              -28.2
            ],
            [
              150.3,
              -28.2
            ],
            [
              153.6,
              -28.2
            ],
            [
              153.6,
              -37.5
            ],
            [
              150.5,
              -37.5
            ],
            [
              149.5,
              -37
            ],
            [
              148.2,
              -37.3
            ],
            [
              147,
              -36
            ],
            [
              145.8,
              -36
            ],
            [
              144.8,
              -36.1
            ],
            [
              143,
              -35
            ],
            [
              141.8,
              -34
            ],
            [
              141,
              -34
            ]
          ]
        ]
      }
    },
    {
      "type": "Feature",
      "properties": {
        "id": "vic",
        "name": "Victoria",
        "bbox": {
          "lonMin": 140.9,
          "latMin": -39.2,
          "lonMax": 149.7,
          "latMax": -33.9
        }
      },
      "geometry": {
        "type": "Polygon",
        "coordinates": [
          [
            [
              141,
              -34
            ],
            [
              141.8,
              -34
            ],
            [
              143,
              -35
            ],
            [
              144.8,
              -36.1
            ],
            [
              145.8,
              -36
            ],
            [
              147,
              -36
            ],
            [
              148.2,
              -37.3
            ],
            [
              149.5,
              -37
            ],
            [
              150.5,
              -37.5
            ],
            [
              149.7,
              -38.5
            ],
            [
              148.2,
              -38.8
            ],
            [
              146.5,
              -38.8
            ],
            [
              145,
              -38.6
            ],
            [
              144,
              -38.4
            ],
            [
              143,
              -38.8
            ],
            [
              141.8,
              -39
            ],
            [
              141,
              -38
            ],
            [
              141,
              -34
            ]
          ]
        ]
      }
    },
    {
      "type": "Feature",
      "properties": {
        "id": "qld",
        "name": "Queensland",
        "bbox": {
          "lonMin": 137.9,
          "latMin": -29,
          "lonMax": 153.6,
          "latMax": -10
        }
      },
      "geometry": {
        "type": "Polygon",
        "coordinates": [
          [
            [
              138,
              -26
            ],
            [
              138,
              -17
            ],
            [
              139,
              -17
            ],
            [
              140,
              -17.5
            ],
            [
              141,
              -15
            ],
            [
              141.5,
              -12.5
            ],
            [
              142,
              -11
            ],
            [
              143,
              -11.5
            ],
            [
              144,
              -12
            ],
            [
              145,
              -14
            ],
            [
              145.5,
              -15
            ],
            [
              146,
              -17
            ],
            [
              147,
              -18
            ],
            [
              148,
              -19.5
            ],
            [
              149,
              -20
            ],
            [
              150,
              -22
            ],
            [
              150.5,
              -22.5
            ],
            [
              151,
              -23.5
            ],
            [
              152,
              -24.5
            ],
            [
              153,
              -25.5
            ],
            [
              153.6,
              -26
            ],
            [
              153,
              -27.5
            ],
            [
              153,
              -28
            ],
            [
              150.5,
              -28.2
            ],
            [
              149.7,
              -28.2
            ],
            [
              148.9,
              -29
            ],
            [
              141,
              -29
            ],
            [
              138,
              -26
            ]
          ]
        ]
      }
    },
    {
      "type": "Feature",
      "properties": {
        "id": "sa",
        "name": "South Australia",
        "bbox": {
          "lonMin": 128.9,
          "latMin": -38.1,
          "lonMax": 141,
          "latMax": -25.9
        }
      },
      "geometry": {
        "type": "Polygon",
        "coordinates": [
          [
            [
              129,
              -26
            ],
            [
              129,
              -31.5
            ],
            [
              130,
              -33
            ],
            [
              131,
              -34
            ],
            [
              132,
              -34.5
            ],
            [
              133.5,
              -35.5
            ],
            [
              135,
              -35.2
            ],
            [
              136,
              -35.8
            ],
            [
              137,
              -35.9
            ],
            [
              137.5,
              -35.5
            ],
            [
              138.5,
              -35.7
            ],
            [
              138,
              -34.8
            ],
            [
              138.5,
              -34.5
            ],
            [
              139,
              -35
            ],
            [
              140,
              -35
            ],
            [
              141,
              -34
            ],
            [
              141,
              -29
            ],
            [
              141,
              -26
            ],
            [
              129,
              -26
            ]
          ]
        ]
      }
    },
    {
      "type": "Feature",
      "properties": {
        "id": "wa",
        "name": "Western Australia",
        "bbox": {
          "lonMin": 112,
          "latMin": -35.2,
          "lonMax": 129,
          "latMax": -13.7
        }
      },
      "geometry": {
        "type": "Polygon",
        "coordinates": [
          [
            [
              113,
              -22
            ],
            [
              114,
              -21.8
            ],
            [
              115,
              -21.5
            ],
            [
              116,
              -20.6
            ],
            [
              118,
              -20.4
            ],
            [
              120,
              -19.9
            ],
            [
              122,
              -18
            ],
            [
              122.5,
              -17
            ],
            [
              123.5,
              -17.5
            ],
            [
              124,
              -16.4
            ],
            [
              125,
              -15.5
            ],
            [
              127,
              -14.5
            ],
            [
              128,
              -14.8
            ],
            [
              128.5,
              -14.5
            ],
            [
              129,
              -14.8
            ],
            [
              129,
              -26
            ],
            [
              124,
              -33.5
            ],
            [
              122,
              -33.9
            ],
            [
              119,
              -34.4
            ],
            [
              117,
              -34
            ],
            [
              115,
              -34.5
            ],
            [
              114,
              -34
            ],
            [
              114,
              -31.5
            ],
            [
              113.5,
              -29.5
            ],
            [
              113,
              -27
            ],
            [
              113,
              -22
            ]
          ]
        ]
      }
    },
    {
      "type": "Feature",
      "properties": {
        "id": "tas",
        "name": "Tasmania",
        "bbox": {
          "lonMin": 143.8,
          "latMin": -43.7,
          "lonMax": 148.5,
          "latMax": -39.6
        }
      },
      "geometry": {
        "type": "Polygon",
        "coordinates": [
          [
            [
              147.94,
              -40.55
            ],
            [
              148.32,
              -40.84
            ],
            [
              148.18,
              -41.56
            ],
            [
              148.36,
              -42.07
            ],
            [
              148.01,
              -42.42
            ],
            [
              147.69,
              -43
            ],
            [
              147.01,
              -43.4
            ],
            [
              146.07,
              -43.6
            ],
            [
              145.48,
              -43.28
            ],
            [
              144.89,
              -43.43
            ],
            [
              144.44,
              -42.98
            ],
            [
              145,
              -42.41
            ],
            [
              145.48,
              -41.37
            ],
            [
              146.25,
              -41.1
            ],
            [
              146.76,
              -41.02
            ],
            [
              147.94,
              -40.55
            ]
          ]
        ]
      }
    },
    {
      "type": "Feature",
      "properties": {
        "id": "nt",
        "name": "Northern Territory",
        "bbox": {
          "lonMin": 128.9,
          "latMin": -26,
          "lonMax": 138,
          "latMax": -10.9
        }
      },
      "geometry": {
        "type": "Polygon",
        "coordinates": [
          [
            [
              129,
              -14.8
            ],
            [
              129,
              -26
            ],
            [
              138,
              -26
            ],
            [
              138,
              -17
            ],
            [
              137,
              -17
            ],
            [
              136.5,
              -15.6
            ],
            [
              136,
              -14.5
            ],
            [
              135.5,
              -14.7
            ],
            [
              134.5,
              -14.6
            ],
            [
              133.2,
              -15.5
            ],
            [
              132.5,
              -14.9
            ],
            [
              131.8,
              -15.2
            ],
            [
              130.8,
              -14.7
            ],
            [
              130,
              -14.9
            ],
            [
              129.5,
              -14.6
            ],
            [
              129,
              -14.8
            ]
          ]
        ]
      }
    },
    {
      "type": "Feature",
      "properties": {
        "id": "act",
        "name": "Australian Capital Territory",
        "bbox": {
          "lonMin": 148.7,
          "latMin": -35.9,
          "lonMax": 149.4,
          "latMax": -35.1
        }
      },
      "geometry": {
        "type": "Polygon",
        "coordinates": [
          [
            [
              148.75,
              -35.15
            ],
            [
              149.4,
              -35.15
            ],
            [
              149.4,
              -35.92
            ],
            [
              148.75,
              -35.92
            ],
            [
              148.75,
              -35.15
            ]
          ]
        ]
      }
    }
  ]
}