{
  "type": "FeatureCollection",
  "features": [
    {
      "type": "Feature",
      "properties": {
        "id": "AUS",
        "name": "Australia"
      },
      "geometry": {
        "type": "MultiPolygon",
        "coordinates": [
          [
            [
              [
                113.15,
                -22
              ],
              [
                114.17,
                -21.84
              ],
              [
                114.6,
                -22.01
              ],
              [
                115.06,
                -21.46
              ],
              [
                116,
                -20.65
              ],
              [
                118.29,
                -20.37
              ],
              [
                119.89,
                -19.98
              ],
              [
                121.28,
                -19.5
              ],
              [
                122.19,
                -18
              ],
              [
                122.62,
                -17.07
              ],
              [
                123.56,
                -17.47
              ],
              [
                123.89,
                -17.02
              ],
              [
                124.36,
                -16.44
              ],
              [
                124.88,
                -16.41
              ],
              [
                125.07,
                -15.48
              ],
              [
                125.64,
                -15.18
              ],
              [
                127.14,
                -14.47
              ],
              [
                128.11,
                -14.87
              ],
              [
                128.65,
                -14.6
              ],
              [
                129.06,
                -14.88
              ],
              [
                129.52,
                -14.6
              ],
              [
                130.06,
                -14.89
              ],
              [
                130.77,
                -14.7
              ],
              [
                131.83,
                -15.18
              ],
              [
                132.56,
                -14.9
              ],
              [
                133.22,
                -15.51
              ],
              [
                134.53,
                -14.62
              ],
              [
                135.26,
                -14.51
              ],
              [
                136.09,
                -14.51
              ],
              [
                136.71,
                -15.17
              ],
              [
                136.49,
                -15.57
              ],
              [
                137.09,
                -15.66
              ],
              [
                138.05,
                -15.99
              ],
              [
                138.21,
                -16.63
              ],
              [
                138.63,
                -16.88
              ],
              [
                139.27,
                -17.37
              ],
              [
                140.48,
                -17.55
              ],
              [
                140.97,
                -17.37
              ],
              [
                141.55,
                -16.64
              ],
              [
                141.71,
                -16
              ],
              [
                141.43,
                -14
              ],
              [
                141.49,
                -12.56
              ],
              [
                141.65,
                -12.4
              ],
              [
                141.97,
                -12.73
              ],
              [
                142.25,
                -11.3
              ],
              [
                143.02,
                -11.16
              ],
              [
                143.91,
                -11.46
              ],
              [
                144.68,
                -12.02
              ],
              [
                144.9,
                -13.5
              ],
              [
                145.29,
                -14.49
              ],
              [
                145.47,
                -14.96
              ],
              [
                145.38,
                -15.49
              ],
              [
                145.94,
                -16.66
              ],
              [
                146.32,
                -17.42
              ],
              [
                147.08,
                -18.21
              ],
              [
                147.46,
                -19.48
              ],
              [
                147.95,
                -20.07
              ],
              [
                148.49,
                -20.24
              ],
              [
                149.33,
                -22.46
              ],
              [
                150.19,
                -22.35
              ],
              [
                150.74,
                -22.41
              ],
              [
                150.9,
                -23.46
              ],
              [
                151.62,
                -24.97
              ],
              [
                152.02,
                -25
              ],
              [
                153.01,
                -26
              ],
              [
                153.43,
                -26.42
              ],
              [
                153.41,
                -27.79
              ],
              [
                153.18,
                -28.29
              ],
              [
                153.6,
                -28.78
              ],
              [
                153.64,
                -29.48
              ],
              [
                153.26,
                -29.9
              ],
              [
                153.08,
                -30.4
              ],
              [
                152.9,
                -30.99
              ],
              [
                152.08,
                -32.09
              ],
              [
                151.72,
                -32.56
              ],
              [
                151.23,
                -33.57
              ],
              [
                150.95,
                -34.23
              ],
              [
                150.46,
                -35.31
              ],
              [
                150.12,
                -36.06
              ],
              [
                148.44,
                -37.91
              ],
              [
                148.01,
                -37.6
              ],
              [
                147.24,
                -38.08
              ],
              [
                146.24,
                -38.74
              ],
              [
                144.87,
                -38.59
              ],
              [
                144.81,
                -37.45
              ],
              [
                143.59,
                -38.81
              ],
              [
                142.89,
                -39.18
              ],
              [
                141.66,
                -38.56
              ],
              [
                140.47,
                -38.41
              ],
              [
                139.49,
                -37.04
              ],
              [
                138.79,
                -35.65
              ],
              [
                138.25,
                -35.73
              ],
              [
                138.1,
                -35.27
              ],
              [
                137.49,
                -35.29
              ],
              [
                136.71,
                -35.9
              ],
              [
                136.32,
                -35.38
              ],
              [
                136.81,
                -34.7
              ],
              [
                135.74,
                -34.72
              ],
              [
                135.33,
                -35.11
              ],
              [
                134.28,
                -35.42
              ],
              [
                133.38,
                -35.36
              ],
              [
                132.41,
                -34.37
              ],
              [
                130.85,
                -33.3
              ],
              [
                130.07,
                -32.66
              ],
              [
                129.59,
                -32.05
              ],
              [
                128.35,
                -31.55
              ],
              [
                127.59,
                -32.57
              ],
              [
                126.89,
                -33.84
              ],
              [
                125.76,
                -34.04
              ],
              [
                124.12,
                -33.67
              ],
              [
                123.63,
                -33.76
              ],
              [
                122.27,
                -33.95
              ],
              [
                121.64,
                -33.83
              ],
              [
                120.58,
                -33.96
              ],
              [
                119.87,
                -34.4
              ],
              [
                119.12,
                -34.04
              ],
              [
                118.26,
                -34.09
              ],
              [
                117.56,
                -35.03
              ],
              [
                116.53,
                -34.49
              ],
              [
                115.67,
                -34.36
              ],
              [
                115.16,
                -33.77
              ],
              [
                114.97,
                -33.15
              ],
              [
                115.1,
                -31.25
              ],
              [
                114.65,
                -29.64
              ],
              [
                114.12,
                -28.65
              ],
              [
                113.84,
                -27.47
              ],
              [
                113.51,
                -26.6
              ],
              [
                113.49,
                -24.8
              ],
              [
                113.93,
                -23.49
              ],
              [
                113.84,
                -22.49
              ],
              [
                113.15,
                -22
              ]
            ]
          ],
          [
            [
              [
                147.94,
                -40.55
              ],
              [
                148.32,
                -40.84
              ],
              [
                148.18,
                -41.56
              ],
              [
                148.36,
                -42.07
              ],
              [
                148.01,
                -42.42
              ],
              [
                147.69,
                -43
              ],
              [
                147.01,
                -43.4
              ],
              [
                146.07,
                -43.6
              ],
              [
                145.48,
                -43.28
              ],
              [
                144.89,
                -43.43
              ],
              [
                144.44,
                -42.98
              ],
              [
                145,
                -42.41
              ],
              [
                145.48,
                -41.37
              ],
              [
                146.25,
                -41.1
              ],
              [
                146.76,
                -41.02
              ],
              [
                147.94,
                -40.55
              ]
            ]
          ]
        ]
      }
    }
  ]
}