{"type":"FeatureCollection","features":[{"type":"Feature","properties":{"id":"pakistan","name":"Pakistan","level":0,"centroid":[69.3827,29.9929],"bbox":[60.8729,23.8047,77.1204,37.0824]},"geometry":{"type":"MultiPolygon","coordinates":[[[[67.6608,23.8152],[67.6593,23.8129],[67.6814,23.8047],[67.6852,23.8077],[67.6813,23.807],[67.6775,23.8087],[67.6733,23.8102],[67.6706,23.8121],[67.6645,23.8137],[67.6608,23.8152]]],[[[67.7272,23.8214],[67.7264,23.8178],[67.7207,23.8134],[67.7193,23.8116],[67.7076,23.8116],[67.7009,23.8099],[67.6958,23.8111],[67.6951,23.8106],[67.726,23.8125],[67.7272,23.8214]]],[[[67.9036,23.859],[67.9247,23.8433],[67.924,23.8577],[67.9036,23.859]]],[[[67.6119,23.8655],[67.6131,23.8551],[67.6315,23.8525],[67.6238,23.8522],[67.6287,23.8517],[67.6251,23.8557],[67.6217,23.8569],[67.6178,23.861],[67.6133,23.8647],[67.6119,23.8655]]],[[[67.8808,23.8764],[67.8847,23.8712],[67.8937,23.864],[67.8993,23.865],[67.8979,23.8674],[67.8998,23.8694],[67.8912,23.8702],[67.8925,23.8738],[67.8822,23.8753],[67.8808,23.8764]]],[[[67.4729,23.9505],[67.4689,23.933],[67.5113,23.9142],[67.47,23.9357],[67.4729,23.9505]]],[[[67.4547,23.9952],[67.4485,23.9898],[67.4468,23.9887],[67.4522,23.9754],[67.4517,23.9816],[67.4523,23.9859],[67.4533,23.9901],[67.4542,23.9952],[67.4569,23.994],[67.4547,23.9952]]],[[[67.5159,24.0365],[67.4986,24.0343],[67.4941,24.0297],[67.4886,24.0265],[67.4964,24.0287],[67.5007,24.0333],[67.5067,24.0351],[67.511,24.0285],[67.5196,24.0336],[67.5159,24.0365]]],[[[67.5631,24.0658],[67.5285,24.0606],[67.5172,24.042],[67.5407,24.0478],[67.5164,24.0393],[67.554,24.0357],[67.5631,24.0658]]],[[[67.5867,24.0699],[67.5602,24.0634],[67.5454,24.0257],[67.5771,24.0533],[67.5942,24.0025],[67.6104,24.0281],[67.5867,24.0699]]],[[[67.4975,24.0757],[67.4922,24.0755],[67.4822,24.0753],[67.4793,24.0717],[67.4771,24.0676],[67.4762,24.0619],[67.4846,24.0617],[67.4929,24.0746],[67.498,24.0724],[67.4975,24.0757]]],[[[67.6795,24.0833],[67.6534,24.0769],[67.6465,24.0589],[67.5893,24.0627],[67.6126,24.033],[67.6079,23.9766],[67.6135,24.0337],[67.6399,24.0283],[67.6785,24.0545],[67.693,24.0326],[67.7347,24.0318],[67.6994,24.0454],[67.6795,24.0833]]],[[[67.3816,24.0874],[67.3769,24.0732],[67.3967,24.0663],[67.3816,24.0874]]],[[[68.2289,24.1285],[68.2188,24.1207],[68.2318,24.1102],[68.2289,24.1285]]],[[[67.9113,24.1263],[67.8983,24.1113],[67.9159,24.0962],[67.9113,24.1263]]],[[[67.3709,24.1277],[67.3664,24.1269],[67.3726,24.0887],[67.3768,24.0927],[67.3785,24.1023],[67.3769,24.1064],[67.3754,24.1146],[67.3722,24.1223],[67.3713,24.1261],[67.3709,24.1277]]],[[[68.4779,24.144],[68.4597,24.1345],[68.4454,24.1267],[68.4443,24.1252],[68.4527,24.1223],[68.461,24.1285],[68.4616,24.131],[68.4695,24.1349],[68.4784,24.1437],[68.4779,24.144]]],[[[67.879,24.2039],[67.8754,24.2031],[67.8707,24.1996],[67.868,24.1963],[67.873,24.1936],[67.8769,24.1963],[67.885,24.1993],[67.8847,24.2022],[67.8807,24.2042],[67.879,24.2039]]],[[[67.3364,24.2037],[67.3337,24.2001],[67.3311,24.1981],[67.3319,24.1924],[67.3365,24.1855],[67.3405,24.1899],[67.3407,24.1958],[67.3375,24.2012],[67.3364,24.2037]]],[[[68.6052,24.2326],[68.601,24.2316],[68.6007,24.2265],[68.6023,24.2249],[68.6054,24.2216],[68.6067,24.2185],[68.6118,24.2229],[68.6151,24.227],[68.6083,24.2306],[68.6052,24.2326]]],[[[67.325,24.2365],[67.3106,24.2292],[67.3289,24.1934],[67.316,24.2233],[67.325,24.2365]]],[[[67.2979,24.2872],[67.2866,24.2871],[67.2897,24.2663],[67.3189,24.2518],[67.2979,24.2872]]],[[[67.3254,24.3094],[67.319,24.3072],[67.3216,24.3019],[67.3249,24.2957],[67.3288,24.289],[67.3297,24.2932],[67.3292,24.2999],[67.3288,24.3032],[67.3269,24.3082],[67.3254,24.3094]]],[[[67.3344,24.3324],[67.3368,24.3226],[67.3381,24.3113],[67.3462,24.2975],[67.3498,24.2968],[67.3568,24.2931],[67.3507,24.3094],[67.3447,24.3189],[67.3369,24.3319],[67.3344,24.3324]]],[[[67.2936,24.3309],[67.2951,24.2919],[67.3207,24.3178],[67.2936,24.3309]]],[[[67.2979,24.3863],[67.2776,24.3667],[67.3185,24.3664],[67.2979,24.3863]]],[[[67.5192,24.4187],[67.5142,24.4217],[67.5103,24.4249],[67.4987,24.4252],[67.5002,24.4241],[67.5087,24.4174],[67.5118,24.4155],[67.5146,24.4113],[67.5184,24.4143],[67.5192,24.4187]]],[[[67.4502,24.4464],[67.4487,24.4464],[67.4495,24.4435],[67.4502,24.4394],[67.4522,24.4312],[67.4509,24.4279],[67.4593,24.4308],[67.4569,24.4428],[67.4532,24.4464],[67.4502,24.4464]]],[[[67.2587,24.4682],[67.2692,24.4202],[67.2912,24.4575],[67.2587,24.4682]]],[[[67.2566,24.4959],[67.2515,24.4969],[67.2517,24.4763],[67.2609,24.4739],[67.2569,24.4783],[67.2548,24.4847],[67.2567,24.4882],[67.2529,24.4887],[67.2548,24.4933],[67.2566,24.4959]]],[[[67.4247,24.5006],[67.4203,24.4971],[67.4284,24.4962],[67.4308,24.4885],[67.439,24.4822],[67.4455,24.481],[67.4376,24.4858],[67.4349,24.4909],[67.4302,24.4986],[67.4247,24.5006]]],[[[67.2261,24.5769],[67.2001,24.5671],[67.2422,24.5223],[67.22,24.5501],[67.2261,24.5769]]],[[[67.4328,24.5999],[67.4269,24.5972],[67.4277,24.5952],[67.4336,24.5912],[67.4423,24.585],[67.4434,24.5886],[67.4447,24.5923],[67.4402,24.5918],[67.4335,24.5976],[67.4328,24.5999]]],[[[67.45,24.6019],[67.4527,24.5649],[67.4724,24.5647],[67.481,24.5749],[67.45,24.6019]]],[[[67.405,24.6192],[67.3948,24.6022],[67.4165,24.6058],[67.405,24.6192]]],[[[67.2171,24.6253],[67.225,24.6137],[67.2437,24.5934],[67.2542,24.5905],[67.2454,24.5949],[67.2407,24.6018],[67.2404,24.6083],[67.2325,24.6126],[67.2211,24.6229],[67.2171,24.6253]]],[[[67.4094,24.629],[67.4391,24.6009],[67.4348,24.6236],[67.4094,24.629]]],[[[67.1239,24.7046],[67.1326,24.6849],[67.1417,24.6994],[67.1239,24.7046]]],[[[67.1417,24.7105],[67.139,24.712],[67.1341,24.7104],[67.1319,24.7065],[67.1345,24.7016],[67.1331,24.7011],[67.1344,24.6984],[67.1415,24.7002],[67.1416,24.7056],[67.1417,24.7105]]],[[[67.171,24.727],[67.1805,24.7072],[67.1907,24.7026],[67.1889,24.706],[67.1863,24.7125],[67.1823,24.7143],[67.1828,24.7194],[67.1813,24.7246],[67.1754,24.7231],[67.171,24.727]]],[[[67.1459,24.7293],[67.1281,24.7247],[67.1412,24.7157],[67.1459,24.7293]]],[[[67.1048,24.7154],[67.1054,24.7368],[67.1042,24.7126],[67.1246,24.694],[67.1048,24.7154]]],[[[67.1206,24.7539],[67.1065,24.745],[67.1258,24.7088],[67.1332,24.7219],[67.1194,24.7281],[67.1513,24.735],[67.1222,24.7398],[67.1206,24.7539]]],[[[63.8554,25.1266],[63.8421,25.1247],[63.8358,25.1211],[63.8278,25.1207],[63.8361,25.1183],[63.8457,25.1186],[63.8556,25.1211],[63.8653,25.1248],[63.8599,25.1268],[63.8554,25.1266]]],[[[61.7521,25.1468],[61.749,25.1468],[61.7459,25.1455],[61.7447,25.1395],[61.7478,25.1347],[61.7525,25.1356],[61.7566,25.1381],[61.7569,25.139],[61.7545,25.1376],[61.7521,25.1463],[61.7521,25.1468]]],[[[63.9325,25.4182],[63.9252,25.4198],[63.9212,25.4171],[63.9251,25.4136],[63.936,25.4103],[63.942,25.4103],[63.9393,25.4113],[63.9365,25.4165],[63.9325,25.4182]]],[[[63.9815,25.443],[63.967,25.4424],[63.9511,25.4376],[63.9431,25.4348],[63.934,25.4303],[63.9404,25.4298],[63.9579,25.4341],[63.9605,25.4367],[63.9815,25.443]]],[[[74.7059,37.0713],[74.668,37.0824],[74.6152,37.0418],[74.5189,37.0174],[74.5439,36.9728],[74.5341,36.9572],[74.4266,37.0112],[74.4156,36.975],[74.3471,36.9611],[74.3093,36.9189],[74.2397,36.8948],[74.1759,36.9165],[74.1208,36.8382],[74.0653,36.8411],[74.0471,36.8263],[73.9574,36.8425],[73.9322,36.8747],[73.8927,36.8782],[73.9076,36.8989],[73.8906,36.913],[73.8436,36.926],[73.8151,36.8908],[73.6916,36.9158],[73.6247,36.8975],[73.601,36.9087],[73.5479,36.8911],[73.542,36.8726],[73.4797,36.8974],[73.4481,36.8855],[73.4007,36.8991],[73.3613,36.8782],[73.3322,36.89],[73.3036,36.8686],[73.2693,36.8928],[73.1853,36.8781],[73.1477,36.8948],[73.1182,36.881],[73.0686,36.8856],[73.0394,36.8591],[72.9541,36.8759],[72.93,36.843],[72.8913,36.8392],[72.7531,36.8552],[72.7177,36.8372],[72.6525,36.8519],[72.5587,36.8282],[72.5014,36.7793],[72.423,36.7815],[72.3762,36.7584],[72.3354,36.7667],[72.2983,36.74],[72.2466,36.7524],[72.231,36.7285],[72.1847,36.7114],[72.2076,36.6603],[72.0965,36.6471],[72.082,36.5885],[72.0304,36.592],[72.0019,36.5567],[71.9358,36.5464],[71.9166,36.5087],[71.8096,36.5078],[71.7987,36.4745],[71.8299,36.4331],[71.8066,36.3993],[71.657,36.4836],[71.6373,36.477],[71.64,36.4416],[71.6159,36.4032],[71.558,36.3727],[71.5883,36.3476],[71.5766,36.3275],[71.5234,36.3338],[71.5213,36.3101],[71.4449,36.2691],[71.4361,36.2327],[71.3606,36.2041],[71.3466,36.1676],[71.3191,36.169],[71.2512,36.13],[71.2533,36.1009],[71.2174,36.0875],[71.195,36.0396],[71.3135,35.9824],[71.3191,35.9597],[71.3691,35.9681],[71.3871,35.953],[71.3802,35.9049],[71.4311,35.888],[71.4781,35.8097],[71.5034,35.801],[71.4832,35.7859],[71.4938,35.7496],[71.551,35.7268],[71.5406,35.6726],[71.5065,35.6593],[71.4995,35.6297],[71.5211,35.6063],[71.6204,35.5712],[71.594,35.4999],[71.6573,35.4425],[71.543,35.3103],[71.6315,35.2262],[71.6814,35.2094],[71.6249,35.139],[71.5891,35.1384],[71.5322,35.0912],[71.5586,35.0334],[71.5056,35.0058],[71.5121,34.9751],[71.4751,34.9494],[71.3495,34.914],[71.2962,34.8775],[71.289,34.8185],[71.2406,34.7878],[71.2259,34.7527],[71.1868,34.7498],[71.1502,34.7142],[71.1073,34.7025],[71.0888,34.6734],[71.1173,34.6285],[71.0864,34.5849],[71.0407,34.5746],[71.0111,34.5341],[71.0176,34.5093],[71.0042,34.4995],[71.0241,34.4505],[71.0585,34.4244],[71.1075,34.4336],[71.126,34.4163],[71.1175,34.3752],[71.1761,34.3633],[71.1189,34.2408],[71.1384,34.2279],[71.1235,34.2071],[71.1302,34.1646],[71.0708,34.1093],[71.0825,34.0634],[71.0315,34.0548],[71.001,34.0249],[70.9684,34.0305],[70.9355,34.0069],[70.9141,34.0111],[70.9195,33.9946],[70.8723,33.9714],[70.8552,33.9839],[70.7792,33.961],[70.584,33.9624],[70.4954,33.9397],[70.4143,33.9673],[70.2009,33.9809],[70.1488,34.0143],[70.0877,34.0085],[69.9996,34.0476],[69.9778,34.0351],[69.9042,34.0395],[69.8887,34.0195],[69.9018,33.9824],[69.8614,33.9673],[69.8586,33.9247],[69.9101,33.8971],[69.916,33.8506],[69.9489,33.8337],[69.9643,33.7684],[70.0041,33.7316],[70.031,33.7386],[70.0884,33.717],[70.1426,33.725],[70.1535,33.6893],[70.1434,33.6582],[70.2,33.6427],[70.1729,33.5184],[70.2072,33.5035],[70.1997,33.4877],[70.2152,33.4751],[70.2444,33.4716],[70.2564,33.4348],[70.2968,33.4302],[70.2997,33.4081],[70.3233,33.395],[70.3089,33.3727],[70.3269,33.3309],[70.2927,33.3284],[70.2252,33.2597],[70.1712,33.2381],[70.1643,33.2185],[70.0969,33.2044],[70.0715,33.2193],[70.0207,33.1384],[69.9393,33.1317],[69.9251,33.1033],[69.8767,33.0939],[69.8203,33.1061],[69.7951,33.1324],[69.7354,33.1139],[69.7304,33.0936],[69.7106,33.0896],[69.5825,33.1029],[69.4963,33.0207],[69.5067,32.8958],[69.4963,32.8859],[69.5467,32.8751],[69.4694,32.8549],[69.4412,32.804],[69.4072,32.801],[69.3876,32.7701],[69.4214,32.7305],[69.4419,32.7293],[69.4339,32.6995],[69.4537,32.6583],[69.4286,32.6439],[69.3835,32.56],[69.2782,32.5292],[69.2378,32.4577],[69.282,32.3445],[69.2703,32.1567],[69.2963,32.0886],[69.2871,32.0651],[69.3006,31.9907],[69.3312,31.9253],[69.2884,31.9193],[69.273,31.8931],[69.1999,31.8555],[69.1784,31.803],[69.1521,31.7852],[69.1591,31.762],[69.1324,31.7516],[69.1166,31.7009],[69.0407,31.6613],[69.0199,31.6292],[68.9599,31.649],[68.9389,31.6088],[68.9078,31.5966],[68.8709,31.6085],[68.8562,31.5934],[68.7898,31.6224],[68.7834,31.6605],[68.7278,31.6953],[68.7086,31.7709],[68.6429,31.7778],[68.5755,31.8342],[68.433,31.7631],[68.468,31.7475],[68.5911,31.7531],[68.5654,31.7145],[68.544,31.7131],[68.5233,31.7352],[68.4613,31.735],[68.4281,31.756],[68.2795,31.7569],[68.2543,31.784],[68.2655,31.8033],[68.1794,31.817],[68.171,31.8353],[68.1128,31.7485],[68.0716,31.717],[68.0704,31.696],[67.9846,31.6447],[67.8575,31.6238],[67.7144,31.5133],[67.6601,31.5146],[67.6395,31.5333],[67.5678,31.5232],[67.6088,31.4491],[67.5995,31.4262],[67.6333,31.4141],[67.6366,31.3967],[67.7499,31.4165],[67.7857,31.3999],[67.7927,31.3441],[67.7728,31.322],[67.722,31.327],[67.6487,31.2776],[67.548,31.2629],[67.4841,31.2315],[67.4288,31.2295],[67.3884,31.2079],[67.3017,31.2127],[67.2778,31.1983],[67.1808,31.2236],[67.1552,31.2484],[67.07,31.2139],[67.0534,31.2379],[67.0239,31.2372],[67.0239,31.2563],[67.0588,31.2863],[67.0383,31.3119],[66.9559,31.308],[66.834,31.2648],[66.7965,31.2099],[66.7692,31.1992],[66.731,31.2091],[66.6921,31.1199],[66.692,31.0765],[66.5784,30.9767],[66.3919,30.9406],[66.278,30.5689],[66.3084,30.5],[66.3563,30.4836],[66.339,30.4454],[66.3669,30.4208],[66.3417,30.3843],[66.3455,30.3559],[66.3337,30.3569],[66.341,30.3153],[66.3187,30.2272],[66.259,30.0949],[66.2289,30.0687],[66.3735,29.9711],[66.2516,29.8492],[65.0651,29.5294],[64.5429,29.5879],[64.5437,29.5754],[64.4727,29.5677],[64.4498,29.5482],[64.4379,29.5601],[64.3296,29.5201],[64.2634,29.5221],[64.2312,29.4848],[64.1787,29.4834],[64.1421,29.4367],[64.1702,29.4107],[64.1548,29.4029],[64.1596,29.3905],[64.1151,29.3772],[64.0526,29.4077],[63.5767,29.4871],[63.3476,29.4676],[63.3469,29.452],[63.2331,29.4576],[62.471,29.3896],[60.8729,29.8585],[61.1625,29.5333],[61.3089,29.3952],[61.3601,29.3785],[61.3722,29.3211],[61.3529,29.276],[61.3831,29.2311],[61.4302,29.1991],[61.4127,29.1754],[61.4208,29.1357],[61.4744,29.1234],[61.4714,29.0909],[61.5073,29.0617],[61.5115,29.0485],[61.4789,29.0236],[61.5334,29.0102],[61.6456,28.8029],[61.91,28.5644],[62.0439,28.5101],[62.3895,28.4322],[62.4888,28.3734],[62.5123,28.3229],[62.5972,28.2484],[62.793,28.2789],[62.761,28.0259],[62.829,27.7645],[62.8484,27.4629],[62.7913,27.3388],[62.8248,27.2992],[62.8088,27.2642],[62.7756,27.2529],[62.8207,27.2185],[62.873,27.2289],[62.937,27.2014],[63.0406,27.2373],[63.1167,27.2361],[63.1987,27.2594],[63.2247,27.2256],[63.2818,27.2137],[63.3333,27.1184],[63.3071,27.1296],[63.2511,27.0922],[63.2463,26.8499],[63.186,26.8367],[63.1876,26.7982],[63.2089,26.7733],[63.1915,26.7705],[63.204,26.7184],[63.1885,26.6953],[63.1969,26.6471],[63.1081,26.6524],[63.0489,26.6275],[62.99,26.6499],[62.8244,26.638],[62.7947,26.651],[62.7535,26.645],[62.7333,26.6295],[62.7381,26.6132],[62.6892,26.6005],[62.6516,26.611],[62.6041,26.5763],[62.4452,26.5669],[62.4212,26.5332],[62.3702,26.5394],[62.3033,26.5083],[62.3069,26.4628],[62.2849,26.4397],[62.2578,26.4462],[62.2595,26.4083],[62.2847,26.3803],[62.2501,26.3466],[62.2719,26.328],[62.2282,26.3295],[62.215,26.2679],[62.1254,26.274],[62.0983,26.2858],[62.0852,26.3189],[62.0334,26.3345],[62.0218,26.3028],[61.9611,26.2602],[61.8963,26.2614],[61.8328,26.0594],[61.8411,26.0356],[61.8287,26.0312],[61.8464,26.0187],[61.8184,25.9672],[61.8317,25.9114],[61.8568,25.9148],[61.8907,25.8832],[61.8422,25.8777],[61.8204,25.8492],[61.8515,25.8164],[61.8362,25.7985],[61.8401,25.7448],[61.8086,25.7379],[61.7982,25.7179],[61.7363,25.7417],[61.7294,25.7136],[61.6914,25.6935],[61.6963,25.668],[61.6723,25.6478],[61.6541,25.3327],[61.6175,25.1759],[61.7383,25.1406],[61.6979,25.1851],[61.7439,25.1756],[61.7567,25.1654],[61.7495,25.1517],[61.7673,25.1505],[61.7607,25.1636],[61.7791,25.1666],[61.7641,25.1937],[61.7796,25.1689],[61.8062,25.1941],[61.7754,25.1604],[61.7917,25.1217],[61.773,25.1193],[61.7755,25.0996],[61.7566,25.1314],[61.7682,25.088],[61.7361,25.0723],[61.7435,25.0511],[61.7264,25.0289],[61.7784,25.0148],[61.8501,25.0353],[61.8709,25.0765],[61.8643,25.0916],[61.9077,25.1085],[62.0894,25.1013],[62.0735,25.1419],[62.0527,25.1539],[62.0626,25.1815],[62.1664,25.2196],[62.2456,25.2126],[62.3051,25.1749],[62.3165,25.1196],[62.2588,25.1043],[62.3744,25.0942],[62.3843,25.1049],[62.3286,25.1202],[62.3513,25.1794],[62.4101,25.2119],[62.4735,25.2228],[62.4586,25.2333],[62.4766,25.2581],[62.5363,25.2681],[62.7913,25.2514],[63.0065,25.2103],[63.1275,25.2574],[63.4961,25.2055],[63.5062,25.2245],[63.4763,25.2414],[63.4783,25.2854],[63.4585,25.2811],[63.4467,25.3184],[63.4492,25.2989],[63.4763,25.286],[63.5173,25.3389],[63.5872,25.3718],[63.6901,25.3847],[63.6762,25.3948],[63.8912,25.3418],[64.0607,25.3294],[64.0731,25.3532],[64.0449,25.3316],[64.0291,25.349],[64.0496,25.3607],[64.004,25.3584],[64.0487,25.38],[63.9749,25.365],[64.0441,25.3797],[64.0396,25.4088],[63.9949,25.3877],[63.9155,25.414],[63.9975,25.4966],[64.0206,25.4839],[64.0138,25.4757],[64.0345,25.4781],[64.0321,25.4668],[64.0701,25.4673],[64.1223,25.4999],[64.1583,25.4745],[64.2213,25.479],[64.2311,25.4642],[64.2104,25.45],[64.2246,25.4391],[64.2087,25.4312],[64.2211,25.4283],[64.2122,25.4137],[64.1901,25.4148],[64.1682,25.38],[64.1757,25.3894],[64.1433,25.3832],[64.1536,25.394],[64.0706,25.3916],[64.1169,25.3499],[64.1282,25.3554],[64.1033,25.3395],[64.0861,25.3516],[64.0955,25.3257],[64.2259,25.3122],[64.4031,25.2382],[64.4762,25.2456],[64.4769,25.2601],[64.5113,25.2742],[64.5576,25.2677],[64.6173,25.222],[64.6178,25.206],[64.5765,25.1784],[64.591,25.1555],[64.6949,25.1843],[64.6849,25.2016],[64.641,25.206],[64.6408,25.2508],[64.6755,25.2948],[64.7418,25.3161],[64.9188,25.3263],[65.1904,25.304],[65.226,25.3167],[65.2474,25.3704],[65.2731,25.3791],[65.4146,25.3758],[65.4588,25.3911],[65.6375,25.3536],[65.7726,25.3846],[65.8172,25.4163],[65.9769,25.4165],[66.0398,25.4277],[66.019,25.4348],[66.2802,25.4675],[66.3746,25.4556],[66.5164,25.4027],[66.5258,25.4254],[66.4812,25.4498],[66.5161,25.4911],[66.4788,25.496],[66.4966,25.4843],[66.486,25.4775],[66.385,25.4963],[66.3751,25.5095],[66.393,25.5211],[66.3562,25.5199],[66.3429,25.5287],[66.3491,25.5447],[66.2741,25.5264],[66.2121,25.4869],[66.091,25.4563],[66.1125,25.4685],[66.0824,25.4725],[66.1302,25.5059],[66.1362,25.5448],[66.1774,25.5765],[66.2015,25.5772],[66.2121,25.5952],[66.2299,25.5873],[66.2419,25.6096],[66.2371,25.5936],[66.2983,25.621],[66.3259,25.6066],[66.3753,25.6241],[66.3687,25.595],[66.4224,25.5903],[66.4111,25.5739],[66.4316,25.5856],[66.4137,25.5724],[66.4341,25.5596],[66.4437,25.5745],[66.444,25.5615],[66.4881,25.5806],[66.4734,25.5657],[66.5003,25.5771],[66.499,25.5487],[66.5326,25.5419],[66.538,25.5527],[66.5525,25.5395],[66.5599,25.4512],[66.5951,25.4209],[66.5784,25.4116],[66.5909,25.4059],[66.5866,25.3781],[66.5527,25.3762],[66.5465,25.3886],[66.5473,25.3648],[66.6854,25.258],[66.746,25.1838],[66.7355,25.1265],[66.7023,25.0869],[66.7121,25.0482],[66.7009,24.9523],[66.6781,24.9365],[66.693,24.8852],[66.7257,24.9234],[66.7062,24.8858],[66.6593,24.8555],[66.665,24.8259],[66.7491,24.8522],[66.8221,24.8386],[66.851,24.8613],[66.916,24.8373],[66.9811,24.7887],[66.9672,24.8116],[66.9022,24.8455],[66.9141,24.8577],[66.898,24.8452],[66.8624,24.8617],[66.8997,24.8697],[66.9306,24.8546],[66.9755,24.8709],[66.9692,24.8255],[66.99,24.8444],[67.0239,24.8255],[66.9832,24.8247],[66.9837,24.8393],[66.9729,24.8202],[66.9852,24.7961],[66.9871,24.8116],[67.0169,24.809],[67.0818,24.7481],[67.1049,24.762],[67.0783,24.8005],[67.094,24.8229],[67.0955,24.8062],[67.116,24.8125],[67.0953,24.8038],[67.1043,24.7904],[67.1163,24.7979],[67.1214,24.7773],[67.1505,24.7938],[67.1815,24.7883],[67.1669,24.8046],[67.2025,24.8002],[67.2023,24.8148],[67.2959,24.8143],[67.3374,24.7876],[67.3153,24.7691],[67.3287,24.7648],[67.3668,24.7788],[67.3567,24.8003],[67.3672,24.7793],[67.4431,24.7875],[67.4813,24.7784],[67.4833,24.7524],[67.5939,24.7414],[67.5124,24.7432],[67.5007,24.7307],[67.5318,24.7086],[67.5027,24.7046],[67.5098,24.6927],[67.4938,24.6758],[67.4651,24.6866],[67.4775,24.6514],[67.4855,24.6652],[67.5008,24.6573],[67.4819,24.6156],[67.5016,24.597],[67.4929,24.5844],[67.5124,24.5853],[67.4703,24.5555],[67.4701,24.5389],[67.4453,24.5676],[67.4206,24.5666],[67.4207,24.5849],[67.3916,24.5624],[67.4815,24.5048],[67.4872,24.4863],[67.4585,24.4757],[67.4789,24.4664],[67.4493,24.4468],[67.4719,24.4584],[67.4895,24.4457],[67.5056,24.4623],[67.4901,24.4451],[67.468,24.4573],[67.4555,24.4456],[67.4908,24.4287],[67.4834,24.4395],[67.5002,24.445],[67.5004,24.4304],[67.5435,24.4189],[67.5419,24.387],[67.5793,24.3629],[67.5803,24.3459],[67.619,24.3527],[67.5998,24.3443],[67.6116,24.3347],[67.5776,24.3379],[67.5818,24.3117],[67.5402,24.2884],[67.5447,24.2679],[67.536,24.2925],[67.5342,24.2302],[67.514,24.2015],[67.4956,24.2036],[67.5242,24.1967],[67.502,24.1841],[67.5116,24.1564],[67.4795,24.1545],[67.4613,24.1298],[67.4493,24.1457],[67.4599,24.124],[67.4803,24.1526],[67.512,24.1556],[67.5485,24.1273],[67.5797,24.1447],[67.5803,24.1179],[67.5913,24.1242],[67.5658,24.0832],[67.5385,24.0984],[67.5459,24.0821],[67.5068,24.0929],[67.5197,24.0687],[67.4976,24.0699],[67.5082,24.0622],[67.4887,24.0409],[67.5479,24.0807],[67.6414,24.0652],[67.6461,24.083],[67.672,24.0893],[67.7092,24.047],[67.7051,24.0601],[67.7657,24.0799],[67.7194,24.1125],[67.753,24.0918],[67.7753,24.1024],[67.7553,24.1146],[67.7679,24.1224],[67.7561,24.1564],[67.7687,24.152],[67.7621,24.1666],[67.7734,24.1626],[67.7801,24.1886],[67.7993,24.1823],[67.8137,24.1982],[67.8487,24.1794],[67.8507,24.199],[67.8873,24.2227],[67.8908,24.1365],[67.9046,24.1716],[67.9387,24.1769],[67.8998,24.1741],[67.9186,24.2],[67.9205,24.2414],[67.9597,24.2252],[67.9668,24.2484],[67.9895,24.2133],[67.9435,24.2103],[67.9344,24.1924],[67.9629,24.2066],[67.937,24.1867],[67.9522,24.1477],[67.9927,24.1356],[68.0046,24.1128],[67.9971,24.1452],[68.0199,24.1667],[68.0602,24.1463],[68.0491,24.1274],[68.1351,24.1434],[68.1225,24.1454],[68.1443,24.1566],[68.1388,24.171],[68.1546,24.1634],[68.1816,24.1875],[68.1783,24.2237],[68.217,24.2396],[68.2092,24.2218],[68.224,24.2312],[68.2463,24.2184],[68.2709,24.1851],[68.2299,24.1824],[68.2424,24.1625],[68.2203,24.1597],[68.1986,24.1258],[68.2224,24.1269],[68.2606,24.1709],[68.2281,24.1316],[68.2392,24.1329],[68.2369,24.1043],[68.2504,24.0951],[68.271,24.106],[68.2662,24.0816],[68.2896,24.0938],[68.2699,24.1084],[68.2837,24.1092],[68.29,24.1365],[68.2895,24.1164],[68.2993,24.1299],[68.3378,24.1115],[68.3281,24.1295],[68.3417,24.1568],[68.3942,24.1578],[68.3733,24.1662],[68.3905,24.1689],[68.384,24.183],[68.3905,24.1729],[68.3994,24.1833],[68.4001,24.1542],[68.4231,24.1566],[68.4147,24.1479],[68.4338,24.143],[68.4224,24.1276],[68.4345,24.1233],[68.5913,24.2102],[68.576,24.2552],[68.5883,24.2658],[68.565,24.2652],[68.5837,24.2848],[68.5612,24.2966],[68.5605,24.3345],[68.6285,24.3377],[68.627,24.3776],[68.6506,24.3687],[68.6933,24.3937],[68.7205,24.3806],[68.7125,24.3442],[68.7394,24.348],[68.7714,24.3854],[68.7865,24.3486],[68.7655,24.3264],[68.8609,24.3312],[68.8749,24.309],[68.887,24.3247],[68.8769,24.3075],[68.9269,24.3256],[68.9881,24.2569],[69.0803,24.2972],[69.1894,24.2581],[69.3108,24.2967],[69.4961,24.2794],[69.5944,24.2986],[69.7319,24.1741],[69.7653,24.1714],[70.0308,24.1733],[70.0639,24.2002],[70.1211,24.3092],[70.255,24.3323],[70.2401,24.3497],[70.2609,24.3405],[70.2938,24.3555],[70.289,24.387],[70.2955,24.357],[70.3193,24.3678],[70.3207,24.3872],[70.3281,24.3694],[70.3811,24.3678],[70.3983,24.3831],[70.3941,24.4097],[70.4054,24.3921],[70.4289,24.4092],[70.4978,24.4178],[70.4769,24.4404],[70.5158,24.4212],[70.5815,24.4304],[70.5649,24.4657],[70.5895,24.4626],[70.6027,24.442],[70.6615,24.4616],[70.6682,24.4731],[70.6496,24.4828],[70.6635,24.4854],[70.6729,24.4731],[70.7092,24.4814],[70.7197,24.4669],[70.6109,24.4237],[70.6176,24.4052],[70.5992,24.4057],[70.5759,24.3443],[70.5853,24.2778],[70.6581,24.24],[70.8061,24.2444],[70.8858,24.2744],[70.8644,24.3169],[70.9417,24.3692],[70.9694,24.3744],[71.027,24.3469],[71.085,24.3932],[71.1211,24.4015],[71.1274,24.4209],[71.1037,24.4374],[71.0444,24.4589],[71.0108,24.455],[70.9958,24.4808],[71.0056,24.5408],[70.9806,24.5553],[70.9822,24.6142],[71.0993,24.6874],[71.0667,24.718],[71.0125,24.8369],[70.9389,24.9394],[70.8899,25.1484],[70.7529,25.2786],[70.7382,25.333],[70.6664,25.3972],[70.6797,25.5229],[70.6686,25.531],[70.6754,25.676],[70.6611,25.7029],[70.6081,25.7159],[70.5298,25.6846],[70.3874,25.675],[70.2699,25.7144],[70.2487,25.7619],[70.1755,25.8291],[70.1014,25.9385],[70.0854,26.0819],[70.1424,26.1556],[70.1769,26.2509],[70.165,26.2943],[70.1869,26.3747],[70.1752,26.5524],[70.1183,26.588],[70.056,26.6019],[69.8869,26.5674],[69.7929,26.5994],[69.7312,26.6508],[69.5114,26.7443],[69.4859,26.805],[69.5152,27.0098],[69.5872,27.1805],[69.864,27.4014],[69.9348,27.4969],[70.0274,27.562],[70.1335,27.8048],[70.2285,27.9009],[70.2975,27.9352],[70.373,28.0106],[70.5059,28.0356],[70.5887,28.0091],[70.6759,27.9213],[70.6829,27.8276],[70.7384,27.7414],[70.7586,27.7197],[70.8718,27.7032],[70.9632,27.7279],[71.203,27.8337],[71.3831,27.8711],[71.6656,27.8759],[71.899,27.9601],[71.929,28.1216],[72.0057,28.2182],[72.132,28.3112],[72.2077,28.3938],[72.3007,28.6692],[72.3888,28.7668],[72.7336,28.9469],[72.9465,29.0267],[73.0056,29.1523],[73.0645,29.2034],[73.2835,29.5715],[73.3986,29.945],[73.5991,30.0181],[73.8073,30.0669],[73.9743,30.1978],[73.9612,30.2705],[73.9325,30.3208],[73.8825,30.3598],[73.9652,30.4237],[73.9745,30.4452],[73.9277,30.4391],[73.9398,30.445],[73.9334,30.4628],[73.9644,30.455],[73.9689,30.4837],[73.9887,30.5077],[74.0204,30.5136],[74.0126,30.5241],[74.074,30.5232],[74.092,30.5494],[74.0768,30.5564],[74.1028,30.5779],[74.0993,30.6125],[74.117,30.6068],[74.1946,30.6639],[74.2334,30.7216],[74.2821,30.73],[74.2616,30.772],[74.3026,30.7784],[74.2982,30.7999],[74.324,30.8468],[74.3834,30.8594],[74.3626,30.8742],[74.3679,30.8849],[74.3977,30.9081],[74.4242,30.9073],[74.4275,30.9401],[74.4989,30.9533],[74.527,30.9837],[74.5514,30.9869],[74.5405,31.0086],[74.5633,31.0484],[74.5842,31.0515],[74.5966,31.0362],[74.6595,31.0487],[74.7002,31.0768],[74.6895,31.1293],[74.6596,31.1359],[74.6369,31.1195],[74.6312,31.1344],[74.603,31.1353],[74.6082,31.0987],[74.5704,31.0828],[74.5526,31.0876],[74.5501,31.123],[74.5127,31.1325],[74.5193,31.2281],[74.5344,31.2497],[74.5223,31.269],[74.5544,31.3648],[74.5868,31.3805],[74.5968,31.4141],[74.6557,31.4254],[74.6379,31.4851],[74.5857,31.4987],[74.5865,31.5193],[74.6146,31.5261],[74.6176,31.5694],[74.5446,31.61],[74.5499,31.6448],[74.5347,31.681],[74.4728,31.7206],[74.4951,31.7406],[74.5517,31.7531],[74.5557,31.8276],[74.599,31.8851],[74.6267,31.8829],[74.6597,31.9182],[74.7092,31.9195],[74.7074,31.9355],[74.7457,31.9516],[74.8091,31.9552],[74.8184,31.9975],[74.8653,32.0239],[74.8621,32.0453],[74.8795,32.052],[74.9335,32.0642],[74.9991,32.0341],[75.0579,32.0622],[75.0923,32.0595],[75.1164,32.0827],[75.1645,32.068],[75.1933,32.1152],[75.2121,32.1191],[75.2332,32.0843],[75.31,32.1552],[75.3336,32.2046],[75.3177,32.2181],[75.3793,32.2306],[75.3841,32.2717],[75.3214,32.2971],[75.3376,32.3218],[75.2899,32.3564],[75.2905,32.3705],[75.1975,32.4043],[75.1882,32.4249],[75.1396,32.4146],[75.0825,32.4801],[75.0365,32.4922],[74.9794,32.4476],[74.8996,32.4663],[74.8771,32.4938],[74.8197,32.4981],[74.7961,32.4773],[74.6883,32.4869],[74.6902,32.5342],[74.662,32.5457],[74.6748,32.5655],[74.6524,32.5655],[74.6598,32.5971],[74.6389,32.6142],[74.6953,32.6604],[74.657,32.7041],[74.655,32.7291],[74.7054,32.8172],[74.7053,32.842],[74.6374,32.8144],[74.658,32.7868],[74.6326,32.7767],[74.6372,32.7518],[74.5656,32.7601],[74.5451,32.7467],[74.4597,32.781],[74.4201,32.8394],[74.4139,32.8685],[74.4286,32.8838],[74.4139,32.9038],[74.318,32.9199],[74.3532,32.9832],[74.3236,33.0099],[74.3241,33.0312],[74.17,33.0741],[74.1836,33.0909],[74.1115,33.1643],[74.0143,33.1982],[74.0205,33.2589],[74.103,33.2705],[74.1708,33.3467],[74.1869,33.4556],[74.0959,33.5706],[74.0286,33.5746],[73.9764,33.6353],[73.9782,33.6545],[73.9926,33.6557],[73.9601,33.7237],[74.0083,33.7522],[74.0656,33.8199],[74.1432,33.8302],[74.2199,33.8672],[74.2609,33.9248],[74.2627,33.9743],[74.2489,34.014],[74.2145,34.0385],[74.1236,34.055],[74.087,34.0376],[74.0145,34.0356],[73.9909,34.0151],[73.9211,34.0134],[73.89,34.0603],[73.9041,34.1223],[73.9764,34.212],[73.9764,34.2646],[73.9038,34.3526],[73.8499,34.3245],[73.8107,34.337],[73.815,34.3505],[73.7787,34.3351],[73.7506,34.3441],[73.7533,34.3795],[73.8076,34.4293],[73.8354,34.4293],[73.8988,34.4957],[73.8867,34.5148],[73.8952,34.5465],[73.9483,34.5733],[73.9297,34.6079],[73.9538,34.6706],[73.9709,34.6861],[74.1233,34.699],[74.2797,34.7682],[74.3073,34.8003],[74.3412,34.7896],[74.3755,34.8034],[74.5803,34.7699],[74.6713,34.7008],[74.7029,34.6932],[74.8723,34.6815],[75.0187,34.6415],[75.1422,34.6625],[75.2497,34.6473],[75.2662,34.6397],[75.2618,34.6107],[75.3951,34.5487],[75.6155,34.5385],[75.7493,34.5157],[75.9187,34.6049],[75.9321,34.6245],[75.9919,34.6299],[76.0365,34.6705],[76.0744,34.6763],[76.1578,34.6433],[76.2599,34.6843],[76.3014,34.7245],[76.3857,34.7361],[76.4745,34.7945],[76.5619,34.7584],[76.6819,34.7597],[76.7434,34.84],[76.7492,34.9265],[76.8112,34.9354],[76.8701,34.9724],[76.9704,34.9354],[76.9977,34.939],[77.0182,35.0384],[77.1099,35.048],[77.1204,35.065],[77.0702,35.1248],[77.0874,35.1672],[77.0175,35.183],[76.9906,35.2106],[77.0043,35.2325],[76.9773,35.2604],[77.0219,35.2955],[76.9844,35.3164],[76.9869,35.3565],[76.9587,35.3627],[76.94,35.3969],[76.8848,35.3859],[76.8475,35.3996],[76.8317,35.4207],[76.8386,35.4428],[76.7912,35.4969],[76.7965,35.5169],[76.759,35.5184],[76.7497,35.555],[76.7941,35.5829],[76.7551,35.6296],[76.7821,35.6425],[76.777,35.6584],[76.6962,35.7246],[76.687,35.7516],[76.5865,35.7756],[76.5611,35.8225],[76.5877,35.8434],[76.5723,35.8709],[76.599,35.9002],[76.5831,35.9196],[76.5479,35.9284],[76.5458,35.9028],[76.5126,35.8814],[76.4686,35.8908],[76.427,35.8525],[76.3664,35.8636],[76.3514,35.8543],[76.3594,35.8282],[76.2246,35.8423],[76.2169,35.8278],[76.169,35.8211],[76.141,35.8497],[76.1594,35.9171],[76.107,35.977],[76.1009,36.0162],[76.0046,36.0172],[75.9569,36.0459],[75.9373,36.1049],[75.9493,36.1134],[75.9326,36.1356],[75.9679,36.1493],[75.9693,36.1636],[76.0294,36.1743],[76.0054,36.1832],[76.0029,36.2322],[76.062,36.2273],[76.0172,36.3004],[75.9949,36.3073],[75.9846,36.3459],[76.0354,36.4091],[75.9875,36.5023],[75.926,36.5647],[75.9456,36.6025],[75.8648,36.6697],[75.7241,36.7512],[75.6403,36.7703],[75.5339,36.7714],[75.5325,36.7214],[75.4993,36.7392],[75.4699,36.7172],[75.4546,36.7224],[75.4209,36.7734],[75.4226,36.8864],[75.3856,36.9034],[75.387,36.9275],[75.4096,36.9455],[75.3995,36.9551],[75.3753,36.9468],[75.29,36.9745],[75.2334,36.9591],[75.1594,36.9901],[75.1681,37.0097],[75.1406,37.0267],[75.1146,37.0068],[75.0604,37.0021],[75.0292,37.0162],[74.9923,36.991],[74.917,36.9785],[74.9324,36.9463],[74.9061,36.9297],[74.8837,36.9364],[74.8399,37.0175],[74.8391,37.0586],[74.799,37.0508],[74.7741,37.022],[74.7392,37.0217],[74.7059,37.0713]]]]}}]}