{"type":"FeatureCollection","features":[{"type":"Feature","properties":{"id":"azad-jammu-kashmir","name":"Azad Kashmir","level":1,"centroid":[73.9975,34.0634],"bbox":[73.3905,32.7977,75.4947,35.0882]},"geometry":{"type":"Polygon","coordinates":[[[74.1151,35.0853],[74.0803,35.047],[74.0726,34.92],[74.0127,34.8709],[73.9739,34.8177],[73.7428,34.7674],[73.6935,34.6863],[73.6639,34.6678],[73.6576,34.5547],[73.5047,34.5564],[73.4328,34.5297],[73.4243,34.4687],[73.3969,34.4205],[73.3905,34.3222],[73.3969,34.2908],[73.4384,34.2454],[73.4758,34.1521],[73.4737,34.0518],[73.499,33.946],[73.554,33.8765],[73.542,33.7875],[73.5547,33.7254],[73.5498,33.6198],[73.5892,33.5482],[73.5758,33.4407],[73.5469,33.3866],[73.5519,33.3224],[73.573,33.3095],[73.5765,33.2229],[73.6146,33.1574],[73.5878,33.1126],[73.5906,33.0937],[73.6125,33.0683],[73.6949,33.0518],[73.7766,33.0063],[73.8718,33.0311],[73.9,33.0181],[73.9246,32.9756],[73.9634,32.943],[74.338,32.7977],[74.3269,32.9469],[74.3087,32.9964],[74.2634,33.0217],[74.1576,33.0293],[74.0381,33.1218],[73.9852,33.1737],[73.9791,33.1952],[73.9882,33.2597],[74.029,33.2736],[74.1228,33.3444],[74.1349,33.3999],[74.1606,33.4353],[74.153,33.5299],[74.1046,33.5828],[74.0699,33.5878],[73.9761,33.6407],[73.9716,33.7086],[73.9867,33.7225],[73.9867,33.7464],[74.0185,33.7941],[74.0744,33.823],[74.1923,33.828],[74.2241,33.8481],[74.2725,33.9021],[74.2921,33.9385],[74.2906,33.9673],[74.2498,33.9974],[73.9912,33.9987],[73.9413,34.0087],[73.8839,34.0588],[73.9172,34.1139],[74.0018,34.149],[74.0018,34.1765],[73.9958,34.224],[73.9565,34.279],[73.8325,34.3027],[73.8022,34.3364],[73.7962,34.3577],[73.8385,34.4487],[73.9081,34.516],[73.9474,34.6131],[73.9807,34.6368],[74.0547,34.6641],[74.1439,34.6654],[74.2982,34.735],[74.3133,34.7524],[74.4297,34.7449],[74.4418,34.7288],[74.5008,34.7251],[74.5234,34.7014],[74.5915,34.694],[74.7124,34.6492],[74.9891,34.6243],[75.0194,34.6169],[75.0299,34.6019],[75.1358,34.6007],[75.1963,34.5858],[75.3157,34.6082],[75.4947,34.6119],[75.4256,34.6516],[75.3337,34.6834],[75.2718,34.724],[74.9554,34.7264],[74.8644,34.751],[74.7444,34.8408],[74.6351,34.8757],[74.6031,34.9503],[74.5993,35.013],[74.5296,35.0835],[74.4686,35.0882],[74.2983,35.0407],[74.2122,35.0423],[74.1151,35.0853]]]}},{"type":"Feature","properties":{"id":"balochistan","name":"Balochistan","level":1,"centroid":[65.8846,28.3],"bbox":[60.8769,24.9106,70.2522,32.0094]},"geometry":{"type":"Polygon","coordinates":[[[66.6899,24.9142],[66.7203,24.9106],[66.7974,24.9463],[66.8488,24.9559],[66.8685,24.9874],[66.9653,24.9943],[66.9864,25.008],[67.0046,25.0285],[67.0257,25.1244],[67.1225,25.1996],[67.1497,25.2407],[67.1573,25.2803],[67.1739,25.2981],[67.186,25.3842],[67.2193,25.4484],[67.2858,25.503],[67.2903,25.5221],[67.3311,25.5357],[67.3478,25.5903],[67.4566,25.7211],[67.4491,25.8532],[67.4597,25.8831],[67.4597,26.0258],[67.3992,26.0992],[67.3493,26.2281],[67.2374,26.3907],[67.2102,26.4571],[67.1754,26.6208],[67.1981,26.6653],[67.2026,26.7099],[67.2026,26.9069],[67.2314,26.9743],[67.2314,27.074],[67.2011,27.1332],[67.2011,27.2354],[67.2344,27.2905],[67.2389,27.4315],[67.31,27.5107],[67.3221,27.5522],[67.3584,27.5884],[67.3795,27.6353],[67.4022,27.6434],[67.4279,27.6795],[67.4294,27.7451],[67.4521,27.7505],[67.4642,27.8334],[67.6063,27.8267],[67.691,27.8641],[67.8392,27.8615],[67.8634,27.9069],[67.9843,27.943],[68.0327,28.003],[68.2912,28.1871],[68.4061,28.2071],[68.4318,28.2244],[68.4712,28.323],[68.5286,28.3682],[69.0805,28.4001],[69.3662,28.4001],[69.404,28.4121],[69.4025,28.428],[69.3723,28.452],[69.3587,28.4945],[69.3405,28.5051],[69.3405,28.5237],[69.4327,28.5623],[69.4902,28.6883],[69.5552,28.7334],[69.5537,28.7599],[69.4917,28.8222],[69.5023,28.8646],[69.5885,28.944],[69.6278,29.0115],[69.7004,29.0683],[69.7049,29.0947],[69.7261,29.1159],[69.7336,29.1832],[69.7639,29.2254],[69.7623,29.2505],[69.7321,29.269],[69.6837,29.2637],[69.6656,29.2769],[69.6474,29.3072],[69.6414,29.3744],[69.6187,29.3981],[69.5734,29.406],[69.5688,29.4218],[69.5718,29.4627],[69.59,29.4864],[69.5945,29.5995],[69.6217,29.6205],[69.6353,29.656],[69.717,29.677],[69.7412,29.6954],[69.8198,29.8306],[69.8742,29.8896],[69.8742,29.9263],[69.8939,29.9394],[69.906,30.0088],[69.9498,30.0258],[69.9589,30.137],[70.0269,30.2076],[70.0299,30.2277],[70.007,30.2609],[69.9445,30.286],[69.9358,30.3106],[69.9414,30.3293],[69.9593,30.3368],[69.9634,30.3825],[69.9906,30.4099],[69.9997,30.4595],[70.0662,30.5637],[70.0678,30.6392],[70.0451,30.6808],[70.1691,30.7562],[70.1872,30.8068],[70.219,30.8393],[70.225,30.9846],[70.2447,31.0027],[70.2492,31.0532],[70.2522,31.4113],[70.2144,31.4281],[70.1645,31.3984],[70.1071,31.383],[70.0829,31.3533],[70.0814,31.3313],[70.0542,31.3158],[70.033,31.3494],[70.0284,31.4294],[69.977,31.4384],[69.9498,31.4629],[69.9468,31.4849],[69.974,31.5119],[69.977,31.5983],[69.9483,31.6369],[69.9453,31.7089],[69.9498,31.7321],[69.9831,31.7642],[69.9846,31.7938],[69.9075,31.8144],[69.8999,31.9042],[69.844,31.9158],[69.8697,31.9838],[69.8455,31.9992],[69.8122,32.0094],[69.7729,31.9902],[69.6988,31.9864],[69.6822,31.9748],[69.6731,31.9222],[69.6263,31.8824],[69.5885,31.8811],[69.5779,31.8632],[69.3813,31.8593],[69.3541,31.8799],[69.3405,31.9132],[69.3056,31.9274],[69.2728,31.9155],[69.0247,31.6645],[68.8948,31.6142],[68.8026,31.6182],[68.7672,31.6444],[68.6373,31.7971],[68.5877,31.8312],[68.5428,31.8392],[68.5121,31.8252],[68.4766,31.781],[68.4483,31.767],[68.3349,31.767],[68.2735,31.785],[68.205,31.8413],[68.1813,31.8413],[68.1601,31.8332],[68.1412,31.8051],[68.127,31.7449],[68.0254,31.6564],[67.8789,31.6444],[67.7679,31.5438],[67.6333,31.5498],[67.5766,31.5337],[67.6025,31.4793],[67.6002,31.439],[67.6214,31.4229],[67.7963,31.4148],[67.8128,31.3563],[67.7939,31.3382],[67.6096,31.2655],[67.4773,31.2352],[67.1442,31.2413],[67.071,31.2675],[67.0734,31.3382],[66.9907,31.3341],[66.8891,31.2877],[66.7521,31.1988],[66.7332,31.1746],[66.7308,31.1119],[66.6056,30.9945],[66.4544,30.9581],[66.4048,30.8851],[66.3646,30.7187],[66.3103,30.5785],[66.3127,30.5439],[66.3528,30.4991],[66.3646,30.4666],[66.3717,30.3953],[66.3599,30.275],[66.2772,30.1463],[66.2607,30.081],[66.2796,30.0523],[66.3316,30.0257],[66.3788,29.9807],[66.3765,29.948],[66.3056,29.8804],[66.23,29.8517],[65.3252,29.6302],[65.1338,29.5727],[65.0795,29.5645],[64.9425,29.5953],[64.7771,29.6138],[64.4346,29.5809],[64.255,29.5151],[64.1156,29.437],[63.9361,29.4884],[63.6408,29.5213],[63.3526,29.509],[62.5068,29.4246],[62.3155,29.4946],[61.1225,29.8087],[60.8769,29.8607],[60.8815,29.8353],[60.9358,29.7636],[61.0327,29.6897],[61.3067,29.4164],[61.328,29.365],[61.3374,29.2723],[61.3682,29.2022],[61.4154,29.1568],[61.4934,29.1093],[61.5217,29.0722],[61.5761,28.9234],[61.6304,28.8303],[61.7887,28.6708],[61.9233,28.5651],[61.9847,28.5381],[62.1501,28.4987],[62.2186,28.4696],[62.3155,28.4509],[62.4005,28.4509],[62.4478,28.4322],[62.4998,28.3906],[62.5872,28.2846],[62.6344,28.2555],[62.7502,28.2763],[62.8116,28.2659],[62.814,28.118],[62.7856,28.0597],[62.7809,27.9804],[62.8092,27.8573],[62.8399,27.8239],[62.8612,27.6022],[62.8588,27.487],[62.8021,27.3905],[62.7951,27.3402],[62.8045,27.2877],[62.8328,27.2646],[62.899,27.2457],[62.9888,27.2436],[63.2179,27.2982],[63.2723,27.2772],[63.3124,27.2457],[63.3408,27.1701],[63.2841,27.1427],[63.2628,27.1154],[63.251,26.9112],[63.2226,26.9028],[63.2203,26.7953],[63.2037,26.7763],[63.1801,26.6624],[63.0738,26.6603],[63.0195,26.6751],[62.8612,26.6814],[62.8116,26.6729],[62.684,26.618],[62.4478,26.6054],[62.3249,26.5483],[62.28,26.5039],[62.2564,26.4617],[62.2564,26.3834],[62.247,26.3601],[62.2233,26.3537],[62.1997,26.2775],[62.143,26.2796],[62.1194,26.3305],[62.0509,26.3559],[61.954,26.3135],[61.8903,26.3029],[61.817,26.2521],[61.791,26.2055],[61.7627,25.9275],[61.7391,25.8935],[61.7532,25.8446],[61.7863,25.8403],[61.7863,25.7765],[61.6398,25.751],[61.628,25.5551],[61.607,25.4388],[61.607,25.3159],[61.5888,25.3008],[61.5888,25.2421],[61.6946,25.2284],[61.7506,25.175],[61.737,25.123],[61.6856,25.0806],[61.6886,25.0504],[61.7551,25.0395],[61.8141,25.0545],[61.8579,25.1285],[62.0515,25.1394],[62.0545,25.2024],[62.1225,25.2557],[62.1497,25.2585],[62.2692,25.1914],[62.2873,25.1477],[62.2722,25.1011],[62.3024,25.0874],[62.3599,25.0956],[62.372,25.1175],[62.3418,25.1586],[62.3463,25.1914],[62.372,25.227],[62.5066,25.279],[62.6139,25.2762],[62.7606,25.2256],[62.8694,25.2243],[62.9012,25.2338],[62.9102,25.2489],[62.9465,25.2489],[63.0055,25.2065],[63.0811,25.2174],[63.1476,25.2626],[63.1733,25.2626],[63.2535,25.2256],[63.3895,25.2215],[63.4349,25.1983],[63.5014,25.2024],[63.5226,25.2858],[63.5649,25.3036],[63.6012,25.3459],[63.6738,25.3705],[63.8189,25.3692],[63.9127,25.3172],[64.0064,25.3213],[64.0518,25.3364],[64.1621,25.3364],[64.268,25.3077],[64.3829,25.2379],[64.4645,25.2147],[64.5068,25.2202],[64.5613,25.2489],[64.6097,25.253],[64.6369,25.2325],[64.6444,25.2051],[64.6278,25.1518],[64.6974,25.1381],[64.7261,25.1531],[64.7336,25.1778],[64.6913,25.2079],[64.7064,25.2571],[64.7518,25.3022],[64.8047,25.309],[64.9695,25.3172],[65.0194,25.3118],[65.0889,25.279],[65.2401,25.2831],[65.2628,25.3227],[65.3641,25.3473],[65.5592,25.3418],[65.5697,25.309],[65.6816,25.2981],[65.733,25.3049],[65.8736,25.3569],[65.9976,25.3541],[66.049,25.3815],[66.0974,25.3801],[66.2713,25.4142],[66.4285,25.391],[66.4724,25.3555],[66.5071,25.3596],[66.5132,25.3801],[66.5026,25.3965],[66.3559,25.462],[66.2924,25.4593],[66.1987,25.4183],[66.167,25.4224],[66.1609,25.4525],[66.1836,25.5002],[66.3454,25.5316],[66.424,25.5153],[66.6024,25.417],[66.6145,25.3377],[66.6009,25.2913],[66.6115,25.2708],[66.7581,25.1846],[66.7627,25.1011],[66.7506,25.0696],[66.7234,25.0532],[66.6899,24.9142]]]}},{"type":"Feature","properties":{"id":"gilgit-baltistan","name":"Gilgit-Baltistan","level":1,"centroid":[75.0025,35.7913],"bbox":[72.5401,34.5733,77.8149,37.0002]},"geometry":{"type":"Polygon","coordinates":[[[75.4947,34.6119],[75.6393,34.6069],[75.6634,34.5858],[75.7148,34.5733],[75.8948,34.5795],[75.993,34.6816],[76.0369,34.7089],[76.1321,34.7114],[76.1518,34.689],[76.182,34.6853],[76.3287,34.6952],[76.371,34.7586],[76.4799,34.7983],[76.5283,34.8505],[76.7672,34.8616],[76.7853,34.8716],[76.8186,34.9336],[76.9063,34.9856],[76.9577,35.0005],[77.006,35.0475],[77.0786,35.071],[77.2752,35.102],[77.3311,35.1588],[77.4475,35.1848],[77.5367,35.2836],[77.7333,35.3564],[77.8149,35.471],[77.8028,35.5042],[77.7499,35.5178],[77.7151,35.4968],[77.6592,35.4944],[77.5897,35.4685],[77.4037,35.4624],[77.375,35.4734],[77.3447,35.5091],[77.189,35.5374],[77.1603,35.5903],[77.1346,35.5989],[77.1164,35.6247],[77.0348,35.6284],[77.0045,35.6641],[76.9123,35.6923],[76.8291,35.7488],[76.684,35.8052],[76.6674,35.8236],[76.6734,35.8959],[76.6643,35.9192],[76.6356,35.9302],[76.6114,35.9241],[76.4738,35.8604],[76.2788,35.8616],[76.2546,35.8714],[76.2213,35.9436],[76.1715,35.9852],[76.1397,35.9999],[76.0354,36.0085],[76.0097,36.0232],[75.987,36.0843],[76.0641,36.2174],[76.0671,36.2515],[76.0414,36.2783],[76.0399,36.3003],[76.0626,36.4001],[75.9023,36.6407],[75.7708,36.7413],[75.6468,36.7474],[75.606,36.7401],[75.5455,36.705],[75.5077,36.7098],[75.4881,36.7292],[75.4896,36.7995],[75.4654,36.8237],[75.4306,36.9011],[75.2794,36.9216],[75.228,36.97],[75.1645,36.9893],[75.036,36.9857],[74.9649,36.9386],[74.9271,36.9289],[74.8878,36.9675],[74.782,37.0002],[74.6777,36.999],[74.6157,36.9663],[74.41,36.9543],[74.3224,36.918],[74.2211,36.9071],[74.2044,36.9023],[74.1938,36.8721],[74.1591,36.8467],[74.0532,36.8176],[74.0033,36.8237],[73.9156,36.889],[73.7841,36.8878],[73.7022,36.8575],[73.7236,36.8153],[73.8232,36.7858],[73.8735,36.7517],[73.8968,36.7269],[73.8997,36.7029],[73.8755,36.6734],[73.8068,36.6509],[73.5658,36.6517],[73.5,36.6967],[73.3549,36.706],[73.2862,36.6858],[73.2136,36.6835],[73.1333,36.6555],[73.1052,36.6299],[73.0985,36.5577],[73.0056,36.4667],[72.9146,36.4293],[72.8943,36.3725],[72.8498,36.3288],[72.8111,36.3046],[72.7733,36.2992],[72.7095,36.2578],[72.6524,36.2493],[72.5943,36.2235],[72.5537,36.1704],[72.5421,36.0625],[72.5585,35.9937],[72.5401,35.9357],[72.5401,35.8738],[72.573,35.8448],[72.6098,35.8173],[72.6834,35.7961],[72.7898,35.815],[72.8169,35.8307],[72.992,35.8063],[73.0878,35.8291],[73.1343,35.8236],[73.1381,35.7726],[73.114,35.749],[73.1217,35.7129],[73.1449,35.6744],[73.2156,35.613],[73.3346,35.5619],[73.4139,35.5493],[73.4284,35.5343],[73.5678,35.528],[73.6268,35.5036],[73.6626,35.506],[73.6887,35.4831],[73.7632,35.4556],[73.7671,35.4209],[73.7226,35.3791],[73.7013,35.3333],[73.71,35.2448],[73.7497,35.1942],[73.8077,35.2014],[73.8997,35.1824],[73.9529,35.1389],[74.0816,35.1104],[74.1184,35.0811],[74.2122,35.0423],[74.3235,35.0407],[74.4493,35.0842],[74.5296,35.0835],[74.5993,35.013],[74.6031,34.9503],[74.6351,34.8757],[74.7444,34.8408],[74.8644,34.751],[74.9554,34.7264],[75.2718,34.724],[75.3337,34.6834],[75.4256,34.6516],[75.4947,34.6119]]]}},{"type":"Feature","properties":{"id":"islamabad","name":"Islamabad Capital Territory","level":1,"centroid":[73.0615,33.6679],"bbox":[72.7817,33.4911,73.2943,33.811]},"geometry":{"type":"Polygon","coordinates":[[[72.8853,33.7323],[72.7881,33.6867],[72.7817,33.6586],[72.8071,33.6163],[72.8466,33.5776],[72.8797,33.5876],[72.9043,33.6134],[73.0111,33.6452],[73.0779,33.5708],[73.0657,33.5057],[73.1103,33.4911],[73.146,33.4937],[73.1996,33.5403],[73.2316,33.5757],[73.2425,33.6534],[73.2943,33.6752],[73.2898,33.7029],[73.27,33.7254],[73.242,33.7348],[73.1485,33.811],[72.9661,33.7738],[72.8853,33.7323]]]}},{"type":"Feature","properties":{"id":"khyber-pakhtunkhwa","name":"Khyber Pakhtunkhwa","level":1,"centroid":[71.6312,34.1091],"bbox":[69.2515,31.0704,74.1151,36.8575]},"geometry":{"type":"Polygon","coordinates":[[[70.2496,31.0704],[70.326,31.116],[70.4163,31.1254],[70.4174,31.1744],[70.4339,31.2027],[70.4879,31.2196],[70.533,31.2554],[70.6178,31.2422],[70.7103,31.2507],[70.7565,31.2093],[70.7829,31.2225],[70.8126,31.2846],[70.8126,31.3184],[70.8655,31.3664],[70.8677,31.4247],[70.8457,31.5373],[70.8534,31.5964],[70.8765,31.6442],[70.9514,31.722],[70.9734,31.7651],[71.0163,31.7988],[71.0185,31.8801],[71.0405,31.9044],[71.0438,31.9558],[71.0747,32.0007],[71.0769,32.0632],[71.0857,32.0809],[71.1594,32.108],[71.1738,32.2301],[71.2365,32.2906],[71.296,32.3138],[71.3081,32.3399],[71.3048,32.4626],[71.2343,32.4709],[71.2233,32.535],[71.1539,32.5471],[71.1187,32.6259],[71.1242,32.85],[71.2079,32.9258],[71.3334,32.9536],[71.4325,32.9573],[71.4589,32.9757],[71.4611,32.9997],[71.427,33.0182],[71.4281,33.1003],[71.4105,33.1326],[71.4182,33.1704],[71.4578,33.1722],[71.4853,33.1492],[71.5294,33.1704],[71.5712,33.1676],[71.6318,33.0607],[71.6725,33.0561],[71.7066,33.0717],[71.7385,33.1031],[71.7474,33.1298],[71.7452,33.1722],[71.6967,33.2174],[71.6901,33.2404],[71.7176,33.2754],[71.7187,33.3168],[71.8057,33.3665],[71.8586,33.3775],[71.918,33.4455],[71.9433,33.4584],[71.9499,33.5749],[72.0226,33.695],[72.0865,33.7362],[72.1954,33.7371],[72.2263,33.7564],[72.2406,33.8689],[72.3287,33.931],[72.3705,33.9374],[72.3914,33.9685],[72.4509,34.0013],[72.54,34.0041],[72.5632,33.9612],[72.616,33.942],[72.6248,33.9192],[72.6138,33.8972],[72.6237,33.8835],[72.6909,33.8927],[72.7019,33.9201],[72.7393,33.9411],[72.7624,33.9027],[72.8043,33.8917],[72.8307,33.8405],[72.8354,33.768],[72.8629,33.738],[72.8853,33.7323],[72.9661,33.7738],[73.047,33.7823],[73.09,33.8052],[73.1605,33.8181],[73.2001,33.8738],[73.2603,33.8867],[73.3553,34.0115],[73.4731,34.0622],[73.4758,34.1521],[73.4384,34.2454],[73.3969,34.2908],[73.3905,34.3222],[73.3969,34.4205],[73.4243,34.4687],[73.4328,34.5297],[73.5047,34.5564],[73.6576,34.5547],[73.6639,34.6678],[73.6935,34.6863],[73.7428,34.7674],[73.9739,34.8177],[74.0127,34.8709],[74.0726,34.92],[74.0803,35.047],[74.1151,35.0853],[74.1048,35.0985],[74.0197,35.1302],[73.9529,35.1389],[73.8997,35.1824],[73.8077,35.2014],[73.7497,35.1942],[73.71,35.2448],[73.7013,35.3333],[73.7226,35.3791],[73.7671,35.4209],[73.7632,35.4556],[73.6887,35.4831],[73.6626,35.506],[73.6268,35.5036],[73.5678,35.528],[73.4284,35.5343],[73.4139,35.5493],[73.3346,35.5619],[73.2156,35.613],[73.1449,35.6744],[73.1217,35.7129],[73.114,35.749],[73.1381,35.7726],[73.1343,35.8236],[73.0878,35.8291],[72.992,35.8063],[72.8169,35.8307],[72.7898,35.815],[72.6834,35.7961],[72.6098,35.8173],[72.5401,35.8738],[72.5401,35.9357],[72.5585,35.9937],[72.543,36.0359],[72.5459,36.154],[72.5672,36.1899],[72.5943,36.2235],[72.6524,36.2493],[72.7095,36.2578],[72.7733,36.2992],[72.8111,36.3046],[72.8498,36.3288],[72.8943,36.3725],[72.9146,36.4293],[73.0056,36.4667],[73.0985,36.5577],[73.0985,36.6035],[73.1149,36.6447],[73.2136,36.6835],[73.2862,36.6858],[73.3549,36.706],[73.5,36.6967],[73.5658,36.6517],[73.8068,36.6509],[73.8755,36.6734],[73.8997,36.7029],[73.8968,36.7269],[73.8581,36.7649],[73.7236,36.8153],[73.7022,36.8575],[73.0327,36.8406],[72.9601,36.8152],[72.6229,36.814],[72.5231,36.7704],[72.2374,36.7183],[72.2132,36.7025],[72.1694,36.6249],[71.8809,36.4739],[71.8076,36.4206],[71.7486,36.4206],[71.7391,36.4435],[71.7131,36.4587],[71.647,36.4568],[71.6115,36.337],[71.5123,36.2875],[71.2855,36.1407],[71.2099,36.0682],[71.1887,36.0319],[71.3611,35.9325],[71.4722,35.8349],[71.543,35.693],[71.5076,35.6143],[71.517,35.597],[71.5832,35.5682],[71.5974,35.5451],[71.5926,35.5009],[71.6399,35.4644],[71.6493,35.4336],[71.6423,35.3951],[71.569,35.3469],[71.5289,35.291],[71.5478,35.2505],[71.5974,35.2254],[71.6092,35.2023],[71.5737,35.1231],[71.5359,35.0863],[71.5194,35.0167],[71.4981,35.0012],[71.4816,34.9529],[71.3399,34.8967],[71.2359,34.7842],[71.1036,34.7027],[71.0871,34.6755],[71.0847,34.5569],[70.9737,34.555],[70.9737,34.4751],[71.0044,34.4303],[71.0658,34.3699],[71.1272,34.3563],[71.1414,34.3368],[71.1391,34.1688],[71.1225,34.1532],[71.1202,34.1199],[71.0895,34.1043],[71.0446,34.0339],[70.8438,33.9437],[70.3689,33.9496],[70.3382,33.9692],[70.239,33.9849],[70.0972,34.0397],[69.9815,34.0573],[69.9413,34.0554],[69.8728,33.9927],[69.8681,33.8967],[69.9295,33.7947],[69.9768,33.7436],[70.0216,33.724],[70.1209,33.7102],[70.135,33.6473],[70.1681,33.6198],[70.1658,33.5784],[70.1445,33.5371],[70.1492,33.5056],[70.1917,33.4583],[70.2721,33.409],[70.298,33.3419],[70.2862,33.3064],[70.2532,33.2709],[70.0311,33.1384],[69.9413,33.1028],[69.8232,33.087],[69.6248,33.1186],[69.5161,33.0731],[69.4901,33.0414],[69.4783,32.9899],[69.5043,32.9503],[69.6248,32.9404],[69.6366,32.9245],[69.6342,32.7995],[69.5468,32.7737],[69.5066,32.722],[69.5232,32.6405],[69.5232,32.5908],[69.5066,32.5629],[69.268,32.4234],[69.2515,32.3875],[69.2515,32.0898],[69.2869,32.0257],[69.3056,31.9274],[69.3405,31.9132],[69.3541,31.8799],[69.3813,31.8593],[69.5779,31.8632],[69.5885,31.8811],[69.6263,31.8824],[69.6731,31.9222],[69.6822,31.9748],[69.6988,31.9864],[69.7729,31.9902],[69.8122,32.0094],[69.8697,31.9838],[69.844,31.9158],[69.8999,31.9042],[69.9075,31.8144],[69.9846,31.7938],[69.9831,31.7642],[69.9498,31.7321],[69.9453,31.7089],[69.9483,31.6369],[69.977,31.5983],[69.974,31.5119],[69.9468,31.4849],[69.9498,31.4629],[69.977,31.4384],[70.0284,31.4294],[70.033,31.3494],[70.0542,31.3158],[70.0814,31.3313],[70.0829,31.3533],[70.1071,31.383],[70.1645,31.3984],[70.2144,31.4281],[70.2522,31.4113],[70.2496,31.0704]]]}},{"type":"Feature","properties":{"id":"punjab","name":"Punjab","level":1,"centroid":[72.1299,30.8206],"bbox":[69.3405,27.709,75.3961,34.0622]},"geometry":{"type":"Polygon","coordinates":[[[69.4033,28.4201],[69.4191,28.4201],[69.4721,28.4666],[69.5567,28.4706],[69.6278,28.4227],[69.7155,28.4201],[69.7896,28.3828],[69.8077,28.2764],[69.8349,28.2457],[69.8425,28.1031],[69.8591,28.0684],[69.9453,28.0057],[69.9589,27.9483],[70.0345,27.8868],[70.0859,27.8748],[70.1114,27.8335],[70.2764,27.9897],[70.3958,28.0311],[70.4624,28.0297],[70.5939,27.9323],[70.603,27.8387],[70.6574,27.7411],[70.7028,27.7116],[70.8615,27.709],[71.0339,27.7999],[71.1095,27.8133],[71.1322,27.8361],[71.1896,27.8574],[71.2818,27.8601],[71.3438,27.8828],[71.6553,27.8895],[71.8277,27.9763],[71.8458,28.0844],[71.8957,28.1858],[71.9652,28.2524],[72.0907,28.3336],[72.1527,28.4108],[72.1724,28.5197],[72.2041,28.5835],[72.2223,28.6698],[72.31,28.7758],[72.4808,28.854],[72.6743,28.9652],[72.8724,29.0379],[72.9223,29.1449],[73.0433,29.2782],[73.1249,29.435],[73.1944,29.5311],[73.205,29.5863],[73.2247,29.6087],[73.2776,29.761],[73.3245,29.9486],[73.5165,30.0258],[73.7266,30.0716],[73.8854,30.1815],[73.9081,30.2403],[73.893,30.3264],[73.8174,30.3695],[73.8143,30.3995],[73.837,30.4125],[73.8612,30.453],[73.9005,30.4764],[73.9338,30.5194],[74.0109,30.5441],[74.0381,30.565],[74.0487,30.6222],[74.0714,30.6444],[74.2347,30.6639],[74.28,30.7653],[74.3859,30.8471],[74.4297,30.9145],[74.5779,31.0688],[74.6867,31.0817],[74.6913,31.1296],[74.6701,31.1426],[74.6293,31.1426],[74.5839,31.1232],[74.5431,31.1283],[74.4962,31.1672],[74.4947,31.1891],[74.528,31.2331],[74.5265,31.3636],[74.5885,31.4191],[74.6051,31.4642],[74.6036,31.49],[74.5779,31.5158],[74.5567,31.5802],[74.5491,31.6395],[74.4902,31.7154],[74.4917,31.7797],[74.5098,31.8092],[74.5401,31.8413],[74.6232,31.8914],[74.6671,31.944],[74.7805,31.9556],[74.8055,32.0037],[74.8976,32.0778],[74.9378,32.0778],[74.9921,32.0497],[75.0536,32.0577],[75.1126,32.0878],[75.2213,32.0978],[75.278,32.1298],[75.3323,32.2098],[75.3819,32.2458],[75.3961,32.2657],[75.389,32.2917],[75.3418,32.3256],[75.2993,32.3775],[75.2095,32.4334],[75.1244,32.4354],[75.0772,32.4972],[75.0441,32.5031],[74.9803,32.4613],[74.8646,32.4952],[74.6874,32.4952],[74.6567,32.533],[74.6567,32.5529],[74.6236,32.5728],[74.6189,32.5967],[74.6638,32.6405],[74.6638,32.6703],[74.6378,32.724],[74.6701,32.8225],[74.6535,32.8288],[74.6096,32.7729],[74.5325,32.7449],[74.4796,32.7576],[74.4342,32.7932],[74.3995,32.7754],[74.3556,32.7754],[74.338,32.7977],[74.3148,32.7992],[74.241,32.8425],[73.9634,32.943],[73.9246,32.9756],[73.9,33.0181],[73.8718,33.0311],[73.7766,33.0063],[73.6949,33.0518],[73.6125,33.0683],[73.5878,33.1126],[73.6146,33.1574],[73.6104,33.1792],[73.5829,33.2034],[73.573,33.3095],[73.5519,33.3224],[73.5498,33.3448],[73.5469,33.3866],[73.5758,33.4407],[73.5892,33.5482],[73.5498,33.6198],[73.5547,33.7254],[73.542,33.7875],[73.554,33.8765],[73.499,33.946],[73.4731,34.0622],[73.3553,34.0115],[73.2603,33.8867],[73.2001,33.8738],[73.1485,33.811],[73.242,33.7348],[73.27,33.7254],[73.2952,33.686],[73.2867,33.6658],[73.2425,33.6534],[73.2316,33.5757],[73.132,33.4911],[73.0657,33.5057],[73.0779,33.5708],[73.0111,33.6452],[72.9043,33.6134],[72.8797,33.5876],[72.8466,33.5776],[72.8071,33.6163],[72.7817,33.6586],[72.7881,33.6867],[72.8853,33.7323],[72.8629,33.738],[72.8354,33.768],[72.8307,33.8405],[72.8043,33.8917],[72.7624,33.9027],[72.7393,33.9411],[72.7019,33.9201],[72.6909,33.8927],[72.6237,33.8835],[72.6138,33.8972],[72.6248,33.9192],[72.616,33.942],[72.5632,33.9612],[72.5511,33.9959],[72.4674,34.0041],[72.4035,33.9776],[72.3705,33.9374],[72.3287,33.931],[72.2791,33.9009],[72.2406,33.8689],[72.2263,33.7564],[72.1954,33.7371],[72.0865,33.7362],[72.0226,33.695],[71.9499,33.5749],[71.9356,33.4501],[71.918,33.4455],[71.8586,33.3775],[71.8057,33.3665],[71.7187,33.3168],[71.7176,33.2754],[71.6901,33.2404],[71.6967,33.2174],[71.7452,33.1722],[71.7474,33.1298],[71.7385,33.1031],[71.7066,33.0717],[71.6725,33.0561],[71.6318,33.0607],[71.5712,33.1676],[71.5294,33.1704],[71.4853,33.1492],[71.4578,33.1722],[71.4182,33.1704],[71.4105,33.1326],[71.4281,33.1003],[71.427,33.0182],[71.4611,32.9997],[71.4589,32.9757],[71.4325,32.9573],[71.3334,32.9536],[71.2079,32.9258],[71.1242,32.85],[71.1187,32.6259],[71.1539,32.5471],[71.2233,32.535],[71.2343,32.4709],[71.3048,32.4626],[71.3081,32.3399],[71.296,32.3138],[71.2365,32.2906],[71.1738,32.2301],[71.1594,32.108],[71.0857,32.0809],[71.0769,32.0632],[71.0747,32.0007],[71.0438,31.9558],[71.0405,31.9044],[71.0185,31.8801],[71.0163,31.7988],[70.9734,31.7651],[70.9514,31.722],[70.8765,31.6442],[70.8534,31.5964],[70.8457,31.5373],[70.8677,31.4247],[70.8655,31.3664],[70.8126,31.3184],[70.8126,31.2846],[70.7829,31.2225],[70.7565,31.2093],[70.7103,31.2507],[70.6178,31.2422],[70.533,31.2554],[70.4879,31.2196],[70.4339,31.2027],[70.4174,31.1744],[70.4163,31.1254],[70.326,31.116],[70.2666,31.0849],[70.2496,31.0704],[70.2447,31.0027],[70.225,30.9846],[70.219,30.8393],[70.1872,30.8068],[70.1691,30.7562],[70.0451,30.6808],[70.0678,30.6392],[70.0662,30.5637],[69.9997,30.4595],[69.9906,30.4099],[69.9634,30.3825],[69.9593,30.3368],[69.9414,30.3293],[69.9358,30.3106],[69.9445,30.286],[70.0213,30.2485],[70.0269,30.2076],[69.9589,30.137],[69.9498,30.0258],[69.906,30.0088],[69.8939,29.9394],[69.8742,29.9263],[69.8742,29.8896],[69.8198,29.8306],[69.7412,29.6954],[69.717,29.677],[69.6353,29.656],[69.6217,29.6205],[69.5945,29.5995],[69.59,29.4864],[69.5673,29.4442],[69.5734,29.406],[69.6187,29.3981],[69.6414,29.3744],[69.6474,29.3072],[69.6656,29.2769],[69.6837,29.2637],[69.7321,29.269],[69.7623,29.2505],[69.7639,29.2254],[69.7336,29.1832],[69.7261,29.1159],[69.7049,29.0947],[69.7004,29.0683],[69.6278,29.0115],[69.5885,28.944],[69.5023,28.8646],[69.4917,28.8222],[69.5537,28.7599],[69.5552,28.7334],[69.4902,28.6883],[69.4327,28.5623],[69.3405,28.5237],[69.3405,28.5051],[69.3708,28.4759],[69.3723,28.452],[69.4033,28.4201]]]}},{"type":"Feature","properties":{"id":"sindh","name":"Sindh","level":1,"centroid":[68.7847,25.9513],"bbox":[66.6719,23.7313,71.108,28.4706]},"geometry":{"type":"Polygon","coordinates":[[[66.6899,24.9142],[66.6719,24.8777],[66.6765,24.853],[66.7022,24.8352],[66.8277,24.8352],[66.8821,24.8215],[66.9577,24.7817],[67.0257,24.7858],[67.0514,24.8009],[67.1452,24.7199],[67.1724,24.7171],[67.183,24.6938],[67.1663,24.6471],[67.1648,24.5316],[67.2676,24.3898],[67.2782,24.3306],[67.2949,24.3086],[67.316,24.1542],[67.3463,24.0727],[67.4627,23.907],[67.567,23.8309],[67.6305,23.8019],[67.7016,23.8019],[67.7999,23.7687],[67.824,23.7687],[67.8437,23.7894],[67.8664,23.8669],[67.886,23.8641],[67.9027,23.8033],[68.0176,23.7313],[68.0402,23.7382],[68.0584,23.8489],[68.072,23.8475],[68.0796,23.8296],[68.1476,23.8282],[68.2156,23.8669],[68.2686,23.8793],[68.2852,23.9015],[68.3321,23.9084],[68.3396,23.9415],[68.3789,23.9678],[68.3971,23.9443],[68.4303,23.9374],[68.7539,23.9457],[68.7509,24.2341],[68.7599,24.2769],[68.8204,24.2755],[68.8386,24.2603],[68.837,24.219],[68.8597,24.2093],[68.8779,24.2135],[68.896,24.2507],[68.9278,24.2714],[68.9701,24.219],[69.0079,24.2176],[69.0835,24.2562],[69.1334,24.2369],[69.209,24.2286],[69.2543,24.2534],[69.3027,24.2576],[69.534,24.2397],[69.6006,24.2714],[69.6958,24.1693],[69.7276,24.1583],[70.0315,24.1542],[70.0783,24.1762],[70.1282,24.2783],[70.3006,24.3279],[70.3883,24.3403],[70.5077,24.3898],[70.5576,24.3926],[70.5803,24.3788],[70.5712,24.2562],[70.5818,24.2341],[70.6211,24.2107],[70.7738,24.2011],[70.8509,24.2135],[70.8933,24.2466],[70.9401,24.321],[70.9749,24.3361],[71.0747,24.3472],[71.108,24.4091],[71.1004,24.4201],[71.0203,24.4284],[70.9991,24.4683],[70.9929,24.5527],[71.0055,24.6099],[71.0626,24.6494],[71.0577,24.7084],[70.919,24.9394],[70.8933,25.0203],[70.8857,25.1189],[70.8691,25.1463],[70.7421,25.2544],[70.7179,25.2817],[70.7043,25.3323],[70.6499,25.3801],[70.6362,25.6843],[70.6105,25.7075],[70.5788,25.7102],[70.5455,25.6952],[70.4291,25.6871],[70.2477,25.7007],[70.2295,25.7552],[70.0889,25.8831],[70.0617,25.9293],[70.0587,25.9864],[70.0436,26.0055],[70.0375,26.0476],[70.1177,26.1847],[70.1192,26.2742],[70.1449,26.3284],[70.1282,26.5464],[70.1056,26.5667],[70.0118,26.6045],[69.9196,26.5734],[69.7699,26.5802],[69.655,26.664],[69.4857,26.7342],[69.4569,26.7599],[69.466,26.9986],[69.5219,27.148],[69.593,27.2301],[69.7397,27.3564],[69.7986,27.3872],[69.9604,27.5697],[70.0027,27.63],[70.0436,27.7451],[70.1114,27.8335],[70.0859,27.8748],[70.0345,27.8868],[69.9589,27.9483],[69.9453,28.0057],[69.8591,28.0684],[69.8425,28.1031],[69.8349,28.2457],[69.8077,28.2764],[69.7896,28.3828],[69.7155,28.4201],[69.6278,28.4227],[69.5567,28.4706],[69.5099,28.4706],[69.4721,28.4666],[69.4191,28.4201],[69.3662,28.4001],[69.0805,28.4001],[68.5286,28.3682],[68.4712,28.323],[68.4318,28.2244],[68.4061,28.2071],[68.2912,28.1871],[68.0327,28.003],[67.9843,27.943],[67.8634,27.9069],[67.8392,27.8615],[67.691,27.8641],[67.6063,27.8267],[67.4642,27.8334],[67.4521,27.7505],[67.4294,27.7451],[67.4279,27.6795],[67.4022,27.6434],[67.3795,27.6353],[67.3584,27.5884],[67.3221,27.5522],[67.31,27.5107],[67.2389,27.4315],[67.2344,27.2905],[67.2011,27.2354],[67.2011,27.1332],[67.2314,27.074],[67.2314,26.9743],[67.2026,26.9069],[67.2026,26.7099],[67.1981,26.6653],[67.1754,26.6208],[67.2102,26.4571],[67.2374,26.3907],[67.3493,26.2281],[67.3992,26.0992],[67.4597,26.0258],[67.4597,25.8831],[67.4491,25.8532],[67.4566,25.7211],[67.3478,25.5903],[67.3311,25.5357],[67.2903,25.5221],[67.2858,25.503],[67.2193,25.4484],[67.186,25.3842],[67.1739,25.2981],[67.1573,25.2803],[67.1497,25.2407],[67.1225,25.1996],[67.0257,25.1244],[67.0046,25.0285],[66.9864,25.008],[66.9653,24.9943],[66.8685,24.9874],[66.8488,24.9559],[66.7974,24.9463],[66.7203,24.9106],[66.6899,24.9142]]]}}]}