{"type":"FeatureCollection","features":[{"type":"Feature","properties":{"id":"d-yunusabad","name":"Yunusabad (Tashkent)","level":2,"centroid":[69.28,41.36],"bbox":[69.22,41.32,69.34,41.4]},"geometry":{"type":"Polygon","coordinates":[[[69.22,41.32],[69.26,41.4],[69.34,41.38],[69.3,41.32],[69.22,41.32]]]}},{"type":"Feature","properties":{"id":"d-chilangzor","name":"Chilangzor (Tashkent)","level":2,"centroid":[69.2,41.27],"bbox":[69.15,41.23,69.25,41.31]},"geometry":{"type":"Polygon","coordinates":[[[69.15,41.23],[69.2,41.31],[69.25,41.28],[69.22,41.23],[69.15,41.23]]]}},{"type":"Feature","properties":{"id":"d-samarkand-city","name":"Samarkand City District","level":2,"centroid":[66.96,39.65],"bbox":[66.88,39.6,67.04,39.72]},"geometry":{"type":"Polygon","coordinates":[[[66.88,39.6],[66.92,39.72],[67.04,39.68],[67.0,39.6],[66.88,39.6]]]}},{"type":"Feature","properties":{"id":"d-pastdargom","name":"Pastdargom District","level":2,"centroid":[66.7,39.6],"bbox":[66.5,39.45,66.85,39.75]},"geometry":{"type":"Polygon","coordinates":[[[66.5,39.45],[66.65,39.75],[66.85,39.68],[66.75,39.45],[66.5,39.45]]]}},{"type":"Feature","properties":{"id":"d-bukhara-city","name":"Bukhara City District","level":2,"centroid":[64.43,39.77],"bbox":[64.35,39.72,64.5,39.84]},"geometry":{"type":"Polygon","coordinates":[[[64.35,39.72],[64.4,39.84],[64.5,39.8],[64.46,39.72],[64.35,39.72]]]}},{"type":"Feature","properties":{"id":"d-gijduvon","name":"Gijduvon District","level":2,"centroid":[64.67,40.1],"bbox":[64.45,39.95,64.9,40.25]},"geometry":{"type":"Polygon","coordinates":[[[64.45,39.95],[64.6,40.25],[64.9,40.18],[64.75,39.95],[64.45,39.95]]]}},{"type":"Feature","properties":{"id":"d-nukus-city","name":"Nukus City District","level":2,"centroid":[59.61,42.46],"bbox":[59.5,42.38,59.75,42.55]},"geometry":{"type":"Polygon","coordinates":[[[59.5,42.38],[59.58,42.55],[59.75,42.5],[59.68,42.38],[59.5,42.38]]]}},{"type":"Feature","properties":{"id":"d-muynak","name":"Muynak (Aral Sea Port)","level":2,"centroid":[59.03,43.76],"bbox":[58.6,43.4,59.5,44.1]},"geometry":{"type":"Polygon","coordinates":[[[58.6,43.4],[58.9,44.1],[59.5,43.9],[59.2,43.4],[58.6,43.4]]]}},{"type":"Feature","properties":{"id":"d-andijan-city","name":"Andijan City District","level":2,"centroid":[72.34,40.78],"bbox":[72.25,40.7,72.45,40.85]},"geometry":{"type":"Polygon","coordinates":[[[72.25,40.7],[72.3,40.85],[72.45,40.82],[72.4,40.7],[72.25,40.7]]]}},{"type":"Feature","properties":{"id":"d-asaka","name":"Asaka District","level":2,"centroid":[72.24,40.64],"bbox":[72.1,40.55,72.38,40.75]},"geometry":{"type":"Polygon","coordinates":[[[72.1,40.55],[72.2,40.75],[72.38,40.7],[72.3,40.55],[72.1,40.55]]]}},{"type":"Feature","properties":{"id":"d-fergana-city","name":"Fergana City District","level":2,"centroid":[71.78,40.38],"bbox":[71.7,40.3,71.88,40.45]},"geometry":{"type":"Polygon","coordinates":[[[71.7,40.3],[71.75,40.45],[71.88,40.42],[71.82,40.3],[71.7,40.3]]]}},{"type":"Feature","properties":{"id":"d-kokand","name":"Kokand City District","level":2,"centroid":[70.94,40.53],"bbox":[70.85,40.45,71.05,40.6]},"geometry":{"type":"Polygon","coordinates":[[[70.85,40.45],[70.92,40.6],[71.05,40.56],[70.98,40.45],[70.85,40.45]]]}},{"type":"Feature","properties":{"id":"d-namangan-city","name":"Namangan City District","level":2,"centroid":[71.67,41.0],"bbox":[71.58,40.92,71.78,41.08]},"geometry":{"type":"Polygon","coordinates":[[[71.58,40.92],[71.65,41.08],[71.78,41.04],[71.72,40.92],[71.58,40.92]]]}},{"type":"Feature","properties":{"id":"d-chust","name":"Chust District","level":2,"centroid":[71.23,41.01],"bbox":[71.05,40.9,71.4,41.15]},"geometry":{"type":"Polygon","coordinates":[[[71.05,40.9],[71.2,41.15],[71.4,41.1],[71.3,40.9],[71.05,40.9]]]}},{"type":"Feature","properties":{"id":"d-qarshi-city","name":"Qarshi City District","level":2,"centroid":[65.79,38.86],"bbox":[65.7,38.78,65.9,38.94]},"geometry":{"type":"Polygon","coordinates":[[[65.7,38.78],[65.76,38.94],[65.9,38.9],[65.84,38.78],[65.7,38.78]]]}},{"type":"Feature","properties":{"id":"d-shahrisabz","name":"Shahrisabz District","level":2,"centroid":[66.83,39.05],"bbox":[66.65,38.9,67.05,39.2]},"geometry":{"type":"Polygon","coordinates":[[[66.65,38.9],[66.8,39.2],[67.05,39.15],[66.95,38.9],[66.65,38.9]]]}},{"type":"Feature","properties":{"id":"d-termez-city","name":"Termez City District","level":2,"centroid":[67.28,37.22],"bbox":[67.2,37.15,67.35,37.3]},"geometry":{"type":"Polygon","coordinates":[[[67.2,37.15],[67.25,37.3],[67.35,37.27],[67.3,37.15],[67.2,37.15]]]}},{"type":"Feature","properties":{"id":"d-denov","name":"Denov District","level":2,"centroid":[67.9,38.27],"bbox":[67.7,38.1,68.1,38.45]},"geometry":{"type":"Polygon","coordinates":[[[67.7,38.1],[67.85,38.45],[68.1,38.4],[68.0,38.1],[67.7,38.1]]]}},{"type":"Feature","properties":{"id":"d-urgench-city","name":"Urgench City District","level":2,"centroid":[60.63,41.55],"bbox":[60.55,41.48,60.72,41.62]},"geometry":{"type":"Polygon","coordinates":[[[60.55,41.48],[60.6,41.62],[60.72,41.58],[60.68,41.48],[60.55,41.48]]]}},{"type":"Feature","properties":{"id":"d-khiva","name":"Khiva District","level":2,"centroid":[60.36,41.38],"bbox":[60.2,41.25,60.5,41.5]},"geometry":{"type":"Polygon","coordinates":[[[60.2,41.25],[60.32,41.5],[60.5,41.45],[60.4,41.25],[60.2,41.25]]]}},{"type":"Feature","properties":{"id":"d-navoiy-city","name":"Navoiy City District","level":2,"centroid":[65.38,40.08],"bbox":[65.3,40.02,65.46,40.16]},"geometry":{"type":"Polygon","coordinates":[[[65.3,40.02],[65.35,40.16],[65.46,40.12],[65.42,40.02],[65.3,40.02]]]}},{"type":"Feature","properties":{"id":"d-zarafshan","name":"Zarafshan Desert District","level":2,"centroid":[64.2,41.57],"bbox":[63.9,41.35,64.5,41.75]},"geometry":{"type":"Polygon","coordinates":[[[63.9,41.35],[64.15,41.75],[64.5,41.7],[64.35,41.35],[63.9,41.35]]]}},{"type":"Feature","properties":{"id":"d-jizzakh-city","name":"Jizzakh City District","level":2,"centroid":[67.84,40.12],"bbox":[67.76,40.05,67.92,40.18]},"geometry":{"type":"Polygon","coordinates":[[[67.76,40.05],[67.8,40.18],[67.92,40.15],[67.88,40.05],[67.76,40.05]]]}},{"type":"Feature","properties":{"id":"d-zaamin","name":"Zaamin Mountain District","level":2,"centroid":[68.32,39.96],"bbox":[68.1,39.75,68.55,40.15]},"geometry":{"type":"Polygon","coordinates":[[[68.1,39.75],[68.25,40.15],[68.55,40.1],[68.45,39.75],[68.1,39.75]]]}},{"type":"Feature","properties":{"id":"d-guliston-city","name":"Guliston City District","level":2,"centroid":[68.78,40.49],"bbox":[68.7,40.42,68.86,40.56]},"geometry":{"type":"Polygon","coordinates":[[[68.7,40.42],[68.75,40.56],[68.86,40.52],[68.82,40.42],[68.7,40.42]]]}},{"type":"Feature","properties":{"id":"d-yangiyer","name":"Yangiyer District","level":2,"centroid":[68.83,40.27],"bbox":[68.72,40.18,68.95,40.35]},"geometry":{"type":"Polygon","coordinates":[[[68.72,40.18],[68.8,40.35],[68.95,40.3],[68.88,40.18],[68.72,40.18]]]}}]}