{"type":"FeatureCollection","features":[{"type":"Feature","properties":{"id":"karakalpakstan","name":"Republic of Karakalpakstan","level":1,"centroid":[58.8,43.4],"bbox":[56,41.1,62.2,45.65]},"geometry":{"type":"Polygon","coordinates":[[[56,41.3],[56,41.4294],[56,41.6074],[56,41.8187],[56,42.0481],[56,42.2803],[56,42.5],[56,42.712],[56,42.9296],[56,43.15],[56,43.3704],[56,43.588],[56,43.8],[56,44.0127],[56,44.2296],[56,44.4437],[56,44.6481],[56,44.8359],[56,45],[55.9884,45.1417],[55.963,45.2667],[55.9375,45.375],[55.9259,45.4667],[55.9421,45.5417],[56,45.6],[56.1065,45.6341],[56.2519,45.6426],[56.425,45.6344],[56.6148,45.6185],[56.8102,45.6041],[57,45.6],[57.1931,45.6078],[57.4,45.6204],[57.6125,45.6344],[57.8222,45.6463],[58.0208,45.6527],[58.2,45.65],[58.3542,45.6406],[58.4889,45.6278],[58.6125,45.6094],[58.7333,45.5833],[58.8597,45.5476],[59,45.5],[59.1551,45.4369],[59.3185,45.3593],[59.4875,45.2719],[59.6593,45.1796],[59.831,45.0874],[60,45],[60.169,44.919],[60.3407,44.8407],[60.5125,44.7625],[60.6815,44.6815],[60.8449,44.5949],[61,44.5],[61.1495,44.3961],[61.2963,44.2852],[61.4375,44.1688],[61.5704,44.0481],[61.6921,43.9248],[61.8,43.8],[61.9014,43.6725],[62,43.5407],[62.0875,43.4063],[62.1556,43.2704],[62.1958,43.1345],[62.2,43],[62.1602,42.862],[62.0815,42.7185],[61.975,42.575],[61.8519,42.437],[61.7231,42.3102],[61.6,42.2],[61.4782,42.1079],[61.3481,42.0296],[61.2125,41.9625],[61.0741,41.9037],[60.9356,41.8505],[60.8,41.8],[60.6644,41.7586],[60.5259,41.7296],[60.3875,41.7062],[60.2519,41.6815],[60.1218,41.6484],[60,41.6],[59.8954,41.5282],[59.8074,41.437],[59.725,41.3375],[59.637,41.2407],[59.5324,41.1579],[59.4,41.1],[59.237,41.0705],[59.0519,41.0611],[58.85,41.0656],[58.637,41.0778],[58.4185,41.0913],[58.2,41.1],[57.9713,41.1043],[57.7259,41.1093],[57.475,41.1156],[57.2296,41.1241],[57.0009,41.1353],[56.8,41.15],[56.6227,41.1709],[56.4593,41.1981],[56.3125,41.2281],[56.1852,41.2574],[56.0801,41.2825],[56,41.3]]]}},{"type":"Feature","properties":{"id":"khorezm","name":"Khorezm Region","level":1,"centroid":[60.6,41.5],"bbox":[59.9,41,62,42]},"geometry":{"type":"Polygon","coordinates":[[[59.9,41.3],[59.9028,41.3338],[59.9,41.3815],[59.9,41.4375],[59.9111,41.4963],[59.9417,41.5523],[60,41.6],[60.0928,41.6391],[60.2148,41.6741],[60.3563,41.7063],[60.5074,41.737],[60.6586,41.7678],[60.8,41.8],[60.938,41.8391],[61.0815,41.8852],[61.225,41.9312],[61.363,41.9704],[61.4898,41.9956],[61.6,42],[61.6968,41.9812],[61.7852,41.9444],[61.8625,41.8937],[61.9259,41.8333],[61.9727,41.7674],[62,41.7],[62.0083,41.6248],[62,41.537],[61.975,41.4438],[61.9333,41.3519],[61.875,41.2683],[61.8,41.2],[61.6991,41.147],[61.5704,41.1037],[61.425,41.0688],[61.2741,41.0407],[61.1287,41.0183],[61,41],[60.8873,40.985],[60.7815,40.9741],[60.6812,40.9688],[60.5852,40.9704],[60.4919,40.9803],[60.4,41],[60.3051,41.0361],[60.2074,41.0889],[60.1125,41.15],[60.0259,41.2111],[59.9532,41.2639],[59.9,41.3]]]}},{"type":"Feature","properties":{"id":"navoiy","name":"Navoiy Region","level":1,"centroid":[64.2,42.1],"bbox":[61.6,39.8,66.9,44.6]},"geometry":{"type":"Polygon","coordinates":[[[61.8,43.8],[61.8692,43.8699],[61.9593,43.9704],[62.0687,44.0875],[62.1963,44.2074],[62.3405,44.3162],[62.5,44.4],[62.6808,44.4634],[62.8852,44.5185],[63.1062,44.5625],[63.337,44.5926],[63.5706,44.606],[63.8,44.6],[64.0322,44.5704],[64.2741,44.5185],[64.5187,44.45],[64.7593,44.3704],[64.9887,44.2852],[65.2,44.2],[65.3944,44.1116],[65.5778,44.0148],[65.75,43.9125],[65.9111,43.8074],[66.0611,43.7023],[66.2,43.6],[66.3289,43.5023],[66.4481,43.4074],[66.5563,43.3125],[66.6519,43.2148],[66.7336,43.1116],[66.8,43],[66.8514,42.8782],[66.8889,42.7481],[66.9125,42.6125],[66.9222,42.4741],[66.9181,42.3356],[66.9,42.2],[66.8657,42.0644],[66.8148,41.9259],[66.75,41.7875],[66.6741,41.6519],[66.5898,41.5218],[66.5,41.4],[66.3972,41.2907],[66.2778,41.1926],[66.15,41.1],[66.0222,41.0074],[65.9028,40.9093],[65.8,40.8],[65.7183,40.6713],[65.6519,40.5259],[65.5938,40.375],[65.537,40.2296],[65.4748,40.1009],[65.4,40],[65.3162,39.9215],[65.2296,39.8556],[65.1375,39.8062],[65.037,39.7778],[64.9255,39.7743],[64.8,39.8],[64.6519,39.8623],[64.4815,39.9593],[64.3,40.0812],[64.1185,40.2185],[63.9481,40.3613],[63.8,40.5],[63.678,40.6361],[63.5741,40.7778],[63.4813,40.925],[63.3926,41.0778],[63.3012,41.2361],[63.2,41.4],[63.0914,41.588],[62.9815,41.8037],[62.8687,42.025],[62.7519,42.2296],[62.6294,42.3954],[62.5,42.5],[62.3442,42.5183],[62.1593,42.463],[61.9688,42.3688],[61.7963,42.2704],[61.6655,42.2025],[61.6,42.2],[61.6248,42.2697],[61.7259,42.3852],[61.8688,42.5313],[62.0185,42.6926],[62.1405,42.8539],[62.2,43],[62.1866,43.1426],[62.1259,43.2963],[62.0375,43.45],[61.9407,43.5926],[61.8551,43.713],[61.8,43.8]]]}},{"type":"Feature","properties":{"id":"bukhara","name":"Bukhara Region","level":1,"centroid":[63.8,40],"bbox":[62.2,38.85,65.5,41.4]},"geometry":{"type":"Polygon","coordinates":[[[62.2,39.4],[62.2676,39.4824],[62.363,39.5926],[62.475,39.725],[62.5926,39.8741],[62.7046,40.0343],[62.8,40.2],[62.8759,40.4012],[62.9407,40.6481],[63,40.9063],[63.0593,41.1407],[63.1241,41.3169],[63.2,41.4],[63.2838,41.3692],[63.3704,41.2481],[63.4625,41.0687],[63.563,40.863],[63.6745,40.6627],[63.8,40.5],[63.9481,40.3613],[64.1185,40.2185],[64.3,40.0813],[64.4815,39.9593],[64.6519,39.8623],[64.8,39.8],[64.9289,39.7882],[65.0481,39.8222],[65.1563,39.8812],[65.2519,39.9444],[65.3336,39.991],[65.4,40],[65.4549,39.9681],[65.5,39.9111],[65.5313,39.8375],[65.5444,39.7556],[65.5354,39.6736],[65.5,39.6],[65.4354,39.5328],[65.3444,39.4648],[65.2312,39.3969],[65.1,39.3296],[64.9549,39.2638],[64.8,39.2],[64.6313,39.1284],[64.4444,39.0463],[64.2438,38.9656],[64.0333,38.8981],[63.8174,38.8557],[63.6,38.85],[63.362,38.8959],[63.0963,38.987],[62.825,39.1031],[62.5704,39.2241],[62.3546,39.3297],[62.2,39.4]]]}},{"type":"Feature","properties":{"id":"samarkand","name":"Samarkand Region","level":1,"centroid":[66.6,39.7],"bbox":[65.4,39.1,67.5,40.8]},"geometry":{"type":"Polygon","coordinates":[[[65.4,40],[65.4389,40.1009],[65.4889,40.2519],[65.55,40.425],[65.6222,40.5926],[65.7056,40.7269],[65.8,40.8],[65.9102,40.8028],[66.037,40.7556],[66.175,40.675],[66.3185,40.5778],[66.462,40.4806],[66.6,40.4],[66.7414,40.3345],[66.8926,40.2704],[67.0438,40.2063],[67.1852,40.1407],[67.3072,40.0725],[67.4,40],[67.463,39.9207],[67.5037,39.8352],[67.525,39.7469],[67.5296,39.6593],[67.5204,39.5758],[67.5,39.5],[67.4681,39.4295],[67.4222,39.3611],[67.3625,39.2969],[67.2889,39.2389],[67.2014,39.1892],[67.1,39.15],[66.9766,39.1179],[66.8296,39.0907],[66.6688,39.0719],[66.5037,39.0648],[66.3442,39.073],[66.2,39.1],[66.0648,39.1527],[65.9296,39.2296],[65.8,39.3219],[65.6815,39.4204],[65.5796,39.5161],[65.5,39.6],[65.4475,39.6771],[65.4185,39.7556],[65.4063,39.8313],[65.4037,39.9],[65.4039,39.9576],[65.4,40]]]}},{"type":"Feature","properties":{"id":"qashqadaryo","name":"Qashqadaryo Region","level":1,"centroid":[66,38.8],"bbox":[64.8,38.05,67.6,39.6]},"geometry":{"type":"Polygon","coordinates":[[[64.8,39.2],[64.8762,39.2539],[64.9815,39.337],[65.1062,39.4313],[65.2407,39.5185],[65.3752,39.5808],[65.5,39.6],[65.6144,39.5624],[65.7259,39.4796],[65.8375,39.3719],[65.9519,39.2593],[66.0718,39.1619],[66.2,39.1],[66.3431,39.0811],[66.5,39.0907],[66.6625,39.1156],[66.8222,39.1426],[66.9708,39.1584],[67.1,39.15],[67.2169,39.1177],[67.3296,39.0722],[67.4312,39.0156],[67.5148,38.95],[67.5734,38.8774],[67.6,38.8],[67.59,38.7093],[67.5481,38.6019],[67.4813,38.4875],[67.3963,38.3759],[67.3002,38.2769],[67.2,38.2],[67.091,38.1466],[66.9667,38.1093],[66.8312,38.0844],[66.6889,38.0685],[66.5438,38.0582],[66.4,38.05],[66.2535,38.0346],[66.1,38.013],[65.9438,37.9969],[65.7889,37.9981],[65.6396,38.0286],[65.5,38.1],[65.3637,38.2353],[65.2259,38.4296],[65.0938,38.6531],[64.9741,38.8759],[64.8738,39.0682],[64.8,39.2]]]}},{"type":"Feature","properties":{"id":"surxondaryo","name":"Surxondaryo Region","level":1,"centroid":[67.6,37.9],"bbox":[66.4,37.15,68.35,38.8]},"geometry":{"type":"Polygon","coordinates":[[[66.4,38.05],[66.4917,38.0611],[66.6222,38.0722],[66.775,38.0875],[66.9333,38.1111],[67.0806,38.1472],[67.2,38.2],[67.2858,38.285],[67.35,38.4019],[67.4031,38.5313],[67.4556,38.6537],[67.5177,38.7498],[67.6,38.8],[67.7152,38.8024],[67.8574,38.7722],[68.0094,38.7156],[68.1537,38.6389],[68.273,38.5483],[68.35,38.45],[68.3788,38.3321],[68.3722,38.187],[68.3406,38.0281],[68.2944,37.8685],[68.2441,37.7214],[68.2,37.6],[68.1633,37.5029],[68.1259,37.4193],[68.0844,37.3481],[68.0352,37.2885],[67.9749,37.2395],[67.9,37.2],[67.8019,37.1748],[67.6815,37.1656],[67.55,37.1669],[67.4185,37.1733],[67.2981,37.1795],[67.2,37.18],[67.128,37.1677],[67.0741,37.1456],[67.0313,37.1231],[66.9926,37.11],[66.9512,37.1158],[66.9,37.15],[66.8356,37.2236],[66.763,37.3311],[66.6875,37.4575],[66.6148,37.5878],[66.5505,37.7069],[66.5,37.8],[66.4648,37.8677],[66.4407,37.9222],[66.425,37.9656],[66.4148,38],[66.4074,38.0274],[66.4,38.05]]]}},{"type":"Feature","properties":{"id":"jizzakh","name":"Jizzakh Region","level":1,"centroid":[67.8,40.3],"bbox":[66.6,39.5,68.8,41.2]},"geometry":{"type":"Polygon","coordinates":[[[66.6,40.4],[66.663,40.4699],[66.7481,40.5704],[66.85,40.6875],[66.963,40.8074],[67.0815,40.9162],[67.2,41],[67.3218,41.0646],[67.4519,41.1222],[67.5875,41.1688],[67.7259,41.2],[67.8644,41.2118],[68,41.2],[68.1461,41.1618],[68.3074,41.1],[68.4688,41.0187],[68.6148,40.9222],[68.7303,40.8146],[68.8,40.7],[68.8218,40.5662],[68.8074,40.4074],[68.7625,40.2375],[68.6926,40.0704],[68.6032,39.9199],[68.5,39.8],[68.3634,39.706],[68.1852,39.6259],[67.9875,39.5625],[67.7926,39.5185],[67.6227,39.4968],[67.5,39.5],[67.4394,39.5382],[67.4259,39.6111],[67.4375,39.7062],[67.4519,39.8111],[67.4468,39.9132],[67.4,40],[67.2979,40.0771],[67.1556,40.1556],[66.9938,40.2313],[66.8333,40.3],[66.6951,40.3576],[66.6,40.4]]]}},{"type":"Feature","properties":{"id":"sirdaryo","name":"Sirdaryo Region","level":1,"centroid":[68.75,40.5],"bbox":[68.3,40.1,69.3,40.8]},"geometry":{"type":"Polygon","coordinates":[[[68.3,40.4],[68.3556,40.435],[68.4333,40.4852],[68.525,40.5438],[68.6222,40.6037],[68.7167,40.6581],[68.8,40.7],[68.8759,40.734],[68.9519,40.7667],[69.025,40.7938],[69.0926,40.8111],[69.1519,40.8146],[69.2,40.8],[69.2398,40.7611],[69.2741,40.7],[69.3,40.625],[69.3148,40.5444],[69.3157,40.4667],[69.3,40.4],[69.2634,40.3407],[69.2074,40.2815],[69.1375,40.225],[69.0593,40.1741],[68.9782,40.1315],[68.9,40.1],[68.8178,40.0792],[68.7259,40.0667],[68.6313,40.0625],[68.5407,40.0667],[68.4613,40.0792],[68.4,40.1],[68.359,40.1361],[68.3333,40.1889],[68.3188,40.25],[68.3111,40.3111],[68.3063,40.3639],[68.3,40.4]]]}},{"type":"Feature","properties":{"id":"tashkent-city","name":"Tashkent City","level":1,"centroid":[69.26,41.31],"bbox":[69.15,41.22,69.38,41.4]},"geometry":{"type":"Polygon","coordinates":[[[69.18,41.26],[69.1837,41.2718],[69.1881,41.2889],[69.1937,41.3088],[69.2007,41.3289],[69.2094,41.3468],[69.22,41.36],[69.2339,41.3689],[69.2511,41.3756],[69.27,41.38],[69.2889,41.3822],[69.3061,41.3822],[69.32,41.38],[69.3313,41.3749],[69.3415,41.3667],[69.35,41.3563],[69.3563,41.3444],[69.3598,41.3321],[69.36,41.32],[69.3562,41.3071],[69.3489,41.2926],[69.3387,41.2775],[69.3267,41.263],[69.3135,41.2501],[69.3,41.24],[69.2847,41.2325],[69.2667,41.2267],[69.2475,41.2225],[69.2289,41.22],[69.2125,41.2192],[69.2,41.22],[69.1918,41.2237],[69.1867,41.2304],[69.1838,41.2387],[69.1822,41.2474],[69.1813,41.255],[69.18,41.26]]]}},{"type":"Feature","properties":{"id":"tashkent-region","name":"Tashkent Region","level":1,"centroid":[69.7,41.2],"bbox":[68.8,40.7,70.85,42.3]},"geometry":{"type":"Polygon","coordinates":[[[68.8,40.7],[68.8412,40.7882],[68.8963,40.9111],[68.9625,41.0563],[69.037,41.2111],[69.1171,41.3632],[69.2,41.5],[69.2873,41.6294],[69.3815,41.763],[69.4813,41.8938],[69.5852,42.0148],[69.6919,42.1192],[69.8,42.2],[69.9149,42.2566],[70.0389,42.2944],[70.1656,42.3156],[70.2889,42.3222],[70.4024,42.3163],[70.5,42.3],[70.5867,42.2723],[70.6685,42.2315],[70.7406,42.1781],[70.7981,42.113],[70.8362,42.0367],[70.85,41.95],[70.8339,41.8453],[70.7907,41.7204],[70.7281,41.5844],[70.6537,41.4463],[70.5751,41.3152],[70.5,41.2],[70.4288,41.0953],[70.3556,40.9926],[70.2781,40.8969],[70.1944,40.813],[70.1024,40.7457],[70,40.7],[69.8794,40.6843],[69.7407,40.6963],[69.5938,40.725],[69.4481,40.7593],[69.3137,40.788],[69.2,40.8],[69.1056,40.7937],[69.0222,40.7778],[68.95,40.7562],[68.8889,40.7333],[68.8389,40.7132],[68.8,40.7]]]}},{"type":"Feature","properties":{"id":"namangan","name":"Namangan Region","level":1,"centroid":[71.3,41.1],"bbox":[70.5,40.8,72.15,41.6]},"geometry":{"type":"Polygon","coordinates":[[[70.5,41],[70.5641,41.0745],[70.6519,41.1852],[70.7563,41.3125],[70.8704,41.437],[70.9873,41.5394],[71.1,41.6],[71.2149,41.6112],[71.3389,41.587],[71.4656,41.5406],[71.5889,41.4852],[71.7024,41.4339],[71.8,41.4],[71.8855,41.3888],[71.9648,41.3907],[72.0344,41.3969],[72.0907,41.3981],[72.1304,41.3855],[72.15,41.35],[72.1506,41.2809],[72.1352,41.1833],[72.1031,41.0719],[72.0537,40.9611],[71.9862,40.8656],[71.9,40.8],[71.783,40.7659],[71.6333,40.7519],[71.4656,40.7531],[71.2944,40.7648],[71.1344,40.7821],[71,40.8],[70.8877,40.8241],[70.7852,40.8593],[70.6937,40.9],[70.6148,40.9407],[70.5498,40.9759],[70.5,41]]]}},{"type":"Feature","properties":{"id":"andijan","name":"Andijan Region","level":1,"centroid":[72.4,40.75],"bbox":[71.9,40.4,73.15,41.1]},"geometry":{"type":"Polygon","coordinates":[[[71.9,40.8],[71.9292,40.8373],[71.9667,40.8926],[72.0125,40.9562],[72.0667,41.0185],[72.1292,41.0697],[72.2,41.1],[72.2855,41.1065],[72.387,41.0963],[72.4969,41.075],[72.6074,41.0481],[72.711,41.0213],[72.8,41],[72.8809,40.988],[72.9611,40.9815],[73.0344,40.975],[73.0944,40.963],[73.1351,40.9398],[73.15,40.9],[73.1351,40.834],[73.0944,40.7444],[73.0344,40.6437],[72.9611,40.5444],[72.8809,40.459],[72.8,40.4],[72.711,40.3664],[72.6074,40.3481],[72.4969,40.3437],[72.387,40.3519],[72.2855,40.3711],[72.2,40.4],[72.1292,40.4481],[72.0667,40.5185],[72.0125,40.6],[71.9667,40.6815],[71.9292,40.7519],[71.9,40.8]]]}},{"type":"Feature","properties":{"id":"fergana","name":"Fergana Region","level":1,"centroid":[71.4,40.4],"bbox":[70.45,39.85,72.2,40.8]},"geometry":{"type":"Polygon","coordinates":[[[70.45,40.25],[70.4926,40.303],[70.5463,40.3796],[70.6125,40.4688],[70.6926,40.5593],[70.788,40.64],[70.9,40.7],[71.0429,40.7427],[71.2185,40.7778],[71.4094,40.8031],[71.5981,40.8167],[71.7675,40.8163],[71.9,40.8],[71.9951,40.7582],[72.0667,40.6907],[72.1188,40.6094],[72.1556,40.5259],[72.1813,40.4522],[72.2,40.4],[72.2123,40.3766],[72.2148,40.3741],[72.2063,40.3812],[72.1852,40.387],[72.1502,40.3803],[72.1,40.35],[72.0313,40.2852],[71.9444,40.1926],[71.8438,40.0875],[71.7333,39.9852],[71.6174,39.9009],[71.5,39.85],[71.3719,39.8362],[71.2278,39.8481],[71.0781,39.8781],[70.9333,39.9185],[70.8038,39.9617],[70.7,40],[70.6236,40.0388],[70.5667,40.0852],[70.525,40.1344],[70.4944,40.1815],[70.4708,40.2216],[70.45,40.25]]]}}]}