{"type":"FeatureCollection","features":[{"type":"Feature","properties":{"id":"uzbekistan","name":"Uzbekistan","level":0,"centroid":[64.5853,41.3775],"bbox":[56,37.15,73.15,45.65]},"geometry":{"type":"Polygon","coordinates":[[[56,41.3],[56,41.371],[56,41.4616],[56,41.5686],[56,41.6888],[56,41.8187],[56,41.9552],[56,42.0948],[56,42.2344],[56,42.3705],[56,42.5],[56,42.6264],[56,42.7552],[56,42.8858],[56,43.0176],[56,43.15],[56,43.2824],[56,43.4142],[56,43.5448],[56,43.6736],[56,43.8],[56,43.9267],[56,44.056],[56,44.1862],[56,44.316],[56,44.4437],[56,44.568],[56,44.6872],[56,44.8],[56,44.9047],[56,45],[55.9955,45.087],[55.984,45.168],[55.9685,45.243],[55.952,45.312],[55.9375,45.375],[55.928,45.432],[55.9265,45.483],[55.936,45.528],[55.9595,45.567],[56,45.6],[56.0586,45.6241],[56.1328,45.6376],[56.2202,45.6425],[56.3184,45.6408],[56.425,45.6344],[56.5376,45.6252],[56.6538,45.6152],[56.7712,45.6064],[56.8874,45.6007],[57,45.6],[57.1137,45.6039],[57.2336,45.61],[57.3579,45.6176],[57.4848,45.626],[57.6125,45.6344],[57.7392,45.642],[57.8631,45.6481],[57.9824,45.652],[58.0953,45.6529],[58.2,45.65],[58.2953,45.6447],[58.3824,45.6384],[58.4631,45.6307],[58.5392,45.6212],[58.6125,45.6094],[58.6848,45.5948],[58.7579,45.577],[58.8336,45.5556],[58.9137,45.5301],[59,45.5],[59.0919,45.4642],[59.1872,45.4224],[59.2853,45.3757],[59.3856,45.3252],[59.4875,45.2719],[59.5904,45.2168],[59.6937,45.161],[59.7968,45.1056],[59.8991,45.0516],[60,45],[60.1009,44.9509],[60.2032,44.9032],[60.3063,44.8563],[60.4096,44.8096],[60.5125,44.7625],[60.6144,44.7144],[60.7147,44.6647],[60.8128,44.6128],[60.9081,44.5581],[61,44.5],[61.0886,44.4322],[61.1744,44.352],[61.2578,44.2637],[61.3392,44.172],[61.4188,44.0813],[61.4968,43.996],[61.5736,43.9208],[61.6496,43.86],[61.725,43.8183],[61.8,43.8],[61.8713,43.8091],[61.9368,43.8432],[61.9984,43.897],[62.0584,43.9656],[62.1187,44.0437],[62.1816,44.1264],[62.249,44.2084],[62.3232,44.2848],[62.4061,44.3503],[62.5,44.4],[62.6052,44.4389],[62.72,44.4752],[62.8428,44.5083],[62.972,44.5376],[63.1062,44.5625],[63.244,44.5824],[63.3837,44.5967],[63.524,44.6048],[63.6632,44.6061],[63.8,44.6],[63.9377,44.5852],[64.08,44.5616],[64.2253,44.5304],[64.372,44.4928],[64.5187,44.45],[64.664,44.4032],[64.8063,44.3536],[64.944,44.3024],[65.0757,44.2508],[65.2,44.2],[65.318,44.1481],[65.432,44.0928],[65.542,44.0347],[65.648,43.9744],[65.75,43.9125],[65.848,43.8496],[65.942,43.7863],[66.032,43.7232],[66.118,43.6609],[66.2,43.6],[66.2784,43.5409],[66.3536,43.4832],[66.4252,43.4263],[66.4928,43.3696],[66.5563,43.3125],[66.6152,43.2544],[66.6694,43.1947],[66.7184,43.1328],[66.7621,43.0681],[66.8,43],[66.8293,42.9299],[66.8488,42.8592],[66.8605,42.7873],[66.8664,42.7136],[66.8688,42.6375],[66.8696,42.5584],[66.871,42.4757],[66.8752,42.3888],[66.8841,42.2971],[66.9,42.2],[66.9197,42.0899],[66.9392,41.9632],[66.9596,41.8253],[66.9816,41.6816],[67.0062,41.5375],[67.0344,41.3984],[67.067,41.2697],[67.1048,41.1568],[67.1489,41.0651],[67.2,41],[67.2579,40.9629],[67.3216,40.9488],[67.3907,40.9539],[67.4648,40.9744],[67.5438,41.0063],[67.6272,41.0456],[67.7149,41.0885],[67.8064,41.1312],[67.9016,41.1696],[68,41.2],[68.1065,41.2242],[68.224,41.2472],[68.3495,41.2701],[68.48,41.2936],[68.6125,41.3188],[68.744,41.3464],[68.8715,41.3775],[68.992,41.4128],[69.1025,41.4534],[69.2,41.5],[69.2839,41.5565],[69.3568,41.624],[69.421,41.6995],[69.4784,41.78],[69.5313,41.8625],[69.5816,41.944],[69.6316,42.0215],[69.6832,42.092],[69.7387,42.1525],[69.8,42.2],[69.8675,42.2363],[69.9392,42.2656],[70.0137,42.2883],[70.0896,42.3048],[70.1656,42.3156],[70.2404,42.3212],[70.3126,42.322],[70.3808,42.3184],[70.4437,42.3109],[70.5,42.3],[70.5496,42.2832],[70.594,42.2588],[70.6339,42.2281],[70.67,42.1924],[70.7031,42.1531],[70.734,42.1116],[70.7634,42.0692],[70.792,42.0272],[70.8206,41.987],[70.85,41.95],[70.877,41.9143],[70.8992,41.8776],[70.9182,41.8403],[70.9356,41.8028],[70.9531,41.7656],[70.9724,41.7292],[70.9951,41.694],[71.0228,41.6604],[71.0572,41.6289],[71.1,41.6],[71.1533,41.5732],[71.2168,41.548],[71.2879,41.5242],[71.3644,41.502],[71.4437,41.4812],[71.5236,41.462],[71.6015,41.4443],[71.6752,41.428],[71.7421,41.4133],[71.8,41.4],[71.8478,41.3903],[71.8876,41.3852],[71.9213,41.3834],[71.9508,41.3836],[71.9781,41.3844],[72.0052,41.3844],[72.034,41.3823],[72.0664,41.3768],[72.1044,41.3665],[72.15,41.35],[72.2042,41.326],[72.2656,41.2952],[72.3324,41.2592],[72.4028,41.2196],[72.475,41.1781],[72.5472,41.1364],[72.6176,41.0961],[72.6844,41.0588],[72.7458,41.0262],[72.8,41],[72.8503,40.9817],[72.9004,40.9704],[72.9491,40.9642],[72.9952,40.9612],[73.0375,40.9594],[73.0748,40.9568],[73.1059,40.9515],[73.1296,40.9416],[73.1447,40.9251],[73.15,40.9],[73.1449,40.8642],[73.1304,40.8184],[73.1075,40.7652],[73.0772,40.7072],[73.0406,40.6469],[72.9988,40.5868],[72.9528,40.5295],[72.9036,40.4776],[72.8523,40.4336],[72.8,40.4],[72.7437,40.3788],[72.6808,40.3684],[72.6126,40.3661],[72.5404,40.3692],[72.4656,40.375],[72.3896,40.3808],[72.3137,40.3839],[72.2392,40.3816],[72.1675,40.3712],[72.1,40.35],[72.0368,40.3153],[71.9768,40.2684],[71.9189,40.2126],[71.8624,40.1512],[71.8062,40.0875],[71.7496,40.0248],[71.6915,39.9664],[71.6312,39.9156],[71.5677,39.8757],[71.5,39.85],[71.4256,39.8382],[71.344,39.8368],[71.2574,39.8441],[71.168,39.8584],[71.0781,39.8781],[70.99,39.9016],[70.9059,39.9272],[70.828,39.9532],[70.7586,39.978],[70.7,40],[70.6536,40.0201],[70.618,40.0404],[70.5909,40.0614],[70.57,40.0832],[70.5531,40.1063],[70.538,40.1308],[70.5224,40.1572],[70.504,40.1856],[70.4806,40.2165],[70.45,40.25],[70.4142,40.2903],[70.3768,40.3392],[70.3376,40.3939],[70.2964,40.4516],[70.2531,40.5094],[70.2076,40.5644],[70.1597,40.6138],[70.1092,40.6548],[70.056,40.6845],[70,40.7],[69.9388,40.7004],[69.8712,40.688],[69.7989,40.6651],[69.7236,40.634],[69.6469,40.5969],[69.5704,40.556],[69.4958,40.5136],[69.4248,40.472],[69.359,40.4334],[69.3,40.4],[69.2478,40.37],[69.2008,40.34],[69.1579,40.31],[69.1184,40.28],[69.0813,40.25],[69.0456,40.22],[69.0105,40.19],[68.9752,40.16],[68.9386,40.13],[68.9,40.1],[68.8627,40.07],[68.8296,40.04],[68.7989,40.01],[68.7688,39.98],[68.7375,39.95],[68.7032,39.92],[68.6641,39.89],[68.6184,39.86],[68.5643,39.83],[68.5,39.8],[68.4216,39.7702],[68.3288,39.7408],[68.2252,39.7116],[68.1144,39.6824],[68,39.6531],[67.8856,39.6236],[67.7748,39.5937],[67.6712,39.5632],[67.5784,39.532],[67.5,39.5],[67.4317,39.467],[67.3672,39.4332],[67.3075,39.3987],[67.2536,39.3636],[67.2062,39.3281],[67.1664,39.2924],[67.135,39.2566],[67.1128,39.2208],[67.1009,39.1852],[67.1,39.15],[67.1124,39.115],[67.1384,39.08],[67.176,39.045],[67.2232,39.01],[67.2781,38.975],[67.3388,38.94],[67.4033,38.905],[67.4696,38.87],[67.5358,38.835],[67.6,38.8],[67.6689,38.7672],[67.7484,38.738],[67.835,38.7108],[67.9252,38.684],[68.0156,38.6563],[68.1028,38.626],[68.1833,38.5917],[68.2536,38.552],[68.3103,38.5052],[68.35,38.45],[68.3721,38.3832],[68.38,38.3048],[68.3759,38.2176],[68.362,38.1244],[68.3406,38.0281],[68.314,37.9316],[68.2844,37.8377],[68.254,37.7492],[68.2251,37.669],[68.2,37.6],[68.1779,37.5401],[68.156,37.4851],[68.1336,37.435],[68.11,37.3894],[68.0844,37.3481],[68.056,37.311],[68.0241,37.2779],[67.988,37.2485],[67.9469,37.2226],[67.9,37.2],[67.8444,37.1827],[67.7792,37.1718],[67.7068,37.1664],[67.6296,37.1651],[67.55,37.1669],[67.4704,37.1705],[67.3932,37.1748],[67.3208,37.1786],[67.2556,37.1807],[67.2,37.18],[67.1543,37.1743],[67.116,37.1638],[67.0837,37.1503],[67.056,37.1361],[67.0313,37.1231],[67.008,37.1135],[66.9848,37.1093],[66.96,37.1126],[66.9323,37.1255],[66.9,37.15],[66.8627,37.1893],[66.8216,37.2429],[66.7779,37.3076],[66.7328,37.3802],[66.6875,37.4575],[66.6432,37.5362],[66.6011,37.613],[66.5624,37.6847],[66.5283,37.7481],[66.5,37.8],[66.4814,37.8421],[66.4736,37.8788],[66.4732,37.9107],[66.4768,37.9384],[66.4813,37.9625],[66.4832,37.9836],[66.4793,38.0023],[66.4664,38.0192],[66.4411,38.0349],[66.4,38.05],[66.3415,38.0584],[66.268,38.056],[66.1825,38.0466],[66.088,38.034],[65.9875,38.0219],[65.884,38.014],[65.7805,38.0141],[65.68,38.026],[65.5855,38.0534],[65.5,38.1],[65.4241,38.174],[65.3552,38.276],[65.291,38.3985],[65.2296,38.534],[65.1687,38.675],[65.1064,38.814],[65.0405,38.9435],[64.9688,39.056],[64.8894,39.144],[64.8,39.2],[64.7011,39.2197],[64.5952,39.2084],[64.4831,39.1732],[64.3656,39.1212],[64.2438,39.0594],[64.1184,38.9948],[63.9904,38.9345],[63.8608,38.8856],[63.7303,38.8551],[63.6,38.85],[63.4672,38.8638],[63.3296,38.8856],[63.1884,38.9158],[63.0448,38.9548],[62.9,39.0031],[62.7552,39.0612],[62.6116,39.1295],[62.4704,39.2084],[62.3328,39.2984],[62.2,39.4],[62.0692,39.5247],[61.9376,39.6784],[61.8064,39.8532],[61.6768,40.0412],[61.55,40.2344],[61.4272,40.4248],[61.3096,40.6045],[61.1984,40.7656],[61.0948,40.9001],[61,41],[60.9175,41.0643],[60.848,41.1008],[60.7885,41.1145],[60.736,41.1104],[60.6875,41.0938],[60.64,41.0696],[60.5905,41.0431],[60.536,41.0192],[60.4735,41.0031],[60.4,41],[60.3171,41.0064],[60.2288,41.0152],[60.1357,41.0258],[60.0384,41.0376],[59.9375,41.05],[59.8336,41.0624],[59.7273,41.0742],[59.6192,41.0848],[59.5099,41.0936],[59.4,41.1],[59.289,41.1038],[59.176,41.1056],[59.061,41.1058],[58.944,41.1048],[58.825,41.1031],[58.704,41.1012],[58.581,41.0995],[58.456,41.0984],[58.329,41.0984],[58.2,41.1],[58.0654,41.1025],[57.9232,41.1052],[57.7758,41.1082],[57.6256,41.1116],[57.475,41.1156],[57.3264,41.1204],[57.1822,41.1261],[57.0448,41.1328],[56.9166,41.1407],[56.8,41.15],[56.6921,41.1616],[56.5888,41.176],[56.4907,41.1924],[56.3984,41.21],[56.3125,41.2281],[56.2336,41.246],[56.1623,41.2629],[56.0992,41.278],[56.0449,41.2906],[56,41.3]]]}}]}